State,CMS_CN,P_Name,Address,City,ZIP,O_N_ C_Ser,O_Phy_ T_Ser,O_Occ_The_Ser,O_Sp_Pa_Ser,O_Medi_S_Ser,O_H_H_A_Ser,Q_P_C_Stare_rate,H_o_h_h_t_p,H_o_h_h_p_f_s,H_p_w_a,H_o_p_b_g_bed,H_o_p_b_bathing,H_o_p_breath,H_o_p_drugs_c,H_o_p_a_hosp,H_o_p_r_urgent_h_care,H_o_p_r_u_h_care_ER,C_s_i,H_o_p_r_action,P_r_e,A_l_Term,DTC_num,DTC_dem,DTC_Rate,DTC_Standard_Rate,DTC_Standard_Rate_limit_l,DTC_Standard_Rate_limit_u,PPR_num,PPR_dem,PPR_Rate,PPR_Standard_Rate,PPR_Standard_Rate_limit_l,PPR_Standard_Rate_limit_u,PPH_num,PPH_dem,PPH_Rate,PPH_Standard_Rate,PPH_Standard_Rate_limit_l,PPH_Standard_Rate_limit_u,medical_spends,Nr_of_episods
AK,27001,PROVIDENCE HOME HEALTH ALASKA,"4001 DALE STREET, SUITE 101",ANCHORAGE,99508,Yes,Yes,Yes,Yes,Yes,Yes,4.5,96.7,42.2,86.7,92.3,94.6,100.0,99.6,15.1,12.0,12.0,0.0,87.7,1.7,99.6,609.0,715.0,85.17,91.71,88.92,94.22,16.0,398.0,4.02,3.8,2.82,5.2,44.0,395.0,11.14,10.13,7.91,13.02,0.89,1057.0
AK,27002,HOSPICE & HOME CARE OF JUNEAU,1803 GLACIER HIGHWAY,JUNEAU,99801,Yes,Yes,Yes,Yes,Yes,Yes,2.0,91.9,56.1,59.4,63.8,60.2,49.5,56.6,8.2,19.9,19.9,2.6,97.0,2.1,99.0,98.0,152.0,64.47,70.02,62.39,77.61,3.0,64.0,4.69,3.93,2.75,5.8,3.0,73.0,4.11,7.12,4.26,11.48,0.86,346.0
AK,27006,FAIRBANKS MEMORIAL HOSPITAL HHA,1701 GILLAM WAY,FAIRBANKS,99701,Yes,Yes,No,No,Yes,Yes,2.5,60.9,55.1,71.9,75.3,71.4,83.1,64.7,9.5,21.3,21.3,1.5,97.7,1.9,98.1,261.0,314.0,83.12,86.73,82.04,90.64,2.0,154.0,1.3,3.51,2.36,5.0,9.0,156.0,5.77,7.97,5.08,12.17,0.79,464.0
AK,27008,ANCORA HOME HEALTH & HOSPICE,3831 E BLUE LUPINE DRIVE,WASILLA,99654,Yes,Yes,Yes,Yes,Yes,Yes,3.5,98.1,52.2,84.7,88.5,87.2,86.1,89.7,15.1,13.9,13.9,0.0,99.7,1.5,100.0,1233.0,1567.0,78.69,85.48,83.11,87.64,32.0,686.0,4.66,4.28,3.35,5.42,73.0,855.0,8.54,8.6,6.99,10.49,0.9,2011.0
AK,27009,PETERSBURG MEDICAL CENTER HOME,P.O. BOX 589,PETERSBURG,99833,Yes,Yes,Yes,Yes,No,Yes,1.5,80.3,48.8,74.0,75.5,66.8,55.9,58.0,35.3,6.3,6.3,0.0,91.5,5.9,97.2,56.0,101.0,55.45,57.97,48.2,67.6,14.321452702702702,18.0,3.9466250000000005,3.912418918918919,2.808114864864865,5.427471283783784,4.0,50.0,8.0,10.05,6.2,16.67,1.04,219.0
AK,27010,SOUTH PENINSULA HOSPITAL HHA,4300 BARTLETT STREET,HOMER,99603,Yes,Yes,Yes,Yes,Yes,Yes,2.0,96.5,44.6,72.3,72.6,72.3,55.4,62.7,16.8,13.2,13.2,0.0,95.1,0.0,98.6,155.0,239.0,64.85,71.28,65.16,77.45,3.0,112.0,2.68,3.85,2.6,5.9,10.0,107.0,9.35,9.55,5.94,14.64,1.14,294.0
AK,27014,PEACEHEALTH KETCHIKAN MEDICAL CENTER HOME HEALTH,212 CARLANNA LAKE ROAD SUITE 100,KETCHIKAN,99901,Yes,Yes,Yes,Yes,Yes,Yes,3.5,76.7,64.3,86.3,85.6,93.6,85.7,95.1,12.0,26.4,26.4,0.0,96.8,0.9,99.5,201.0,288.0,69.79,74.93,69.37,80.07,2.0,118.0,1.69,3.54,2.49,5.15,13.0,139.0,9.35,9.79,6.69,14.44,1.04,365.0
AK,27020,"1ST CHOICE HOME HEALTH CARE, INC",159 EAST REDOUBT AVE,SOLDOTNA,99669,Yes,Yes,Yes,Yes,Yes,No,4.0,99.4,32.7,89.1,98.0,99.5,74.2,85.5,9.7,28.4,28.4,0.0,89.6,1.7,92.5,189.0,278.0,67.99,74.22,68.1,79.86,5.0,129.0,3.88,3.81,2.72,5.06,9.0,71.0,12.68,10.69,6.92,15.96,0.91,527.0
AK,27022,ENHABIT HEALTH HOME HEALTH,"3909 ARCTIC BLVD, SUITE 102",ANCHORAGE,99503,Yes,Yes,Yes,Yes,Yes,Yes,3.0,87.1,66.5,82.7,85.7,82.1,85.5,83.4,20.1,9.1,9.1,0.4,97.8,1.3,98.7,292.0,360.0,81.11,84.64,80.64,88.52,12.0,186.0,6.45,4.64,3.31,6.56,23.0,210.0,10.95,11.75,8.27,16.41,0.91,419.0
AK,27032,"MAXIM HEALTHCARE SERVICES, INC",670 WEST FIREWEED LANE SUITE 160,ANCHORAGE,99503,Yes,No,No,No,No,Yes,3.2422312786551197,94.09778357235986,71.06459926017263,78.76185241344453,79.96310174012447,81.67081019687026,79.42103969998708,75.8796644896914,13.867232669099073,11.63344092057255,11.63344092057255,0.3854331202206343,92.03302143787754,1.0009491042828331,97.7465119033519,470.7755026520291,1.0,71.59109411619588,76.5523794251881,69.80250894288885,82.4674762550882,14.321452702702702,249.1084323712507,3.9466250000000005,3.912418918918919,2.808114864864865,5.427471283783784,34.988546018056866,1.0,10.245278264384853,10.24390782913354,7.124472443066972,14.673847190405604,0.9690223239839725,870.149787938347
AK,27034,"ALASKAN HOME HEALTH, INC",9191 OLD SEWARD HIGHWAY SUITE 19A,ANCHORAGE,99515,Yes,Yes,Yes,Yes,Yes,Yes,2.5,72.6,78.9,81.0,97.4,85.0,59.0,61.8,13.6,15.1,15.1,1.4,91.0,0.7,0.0,374.0,483.0,77.43,83.62,79.85,87.16,15.0,357.0,4.2,3.95,2.95,5.31,30.0,251.0,11.95,11.2,8.54,14.9,0.89,713.0
AK,27035,INFINITE CARE OF ALASKA,"165 EAST 56TH AVENUE, SUITE 3",ANCHORAGE,99518,Yes,No,No,No,No,Yes,2.5,98.8,73.6,52.0,73.0,62.6,58.3,58.2,7.4,14.1,14.1,0.5,96.4,1.2,100.0,216.0,296.0,72.97,80.93,75.09,85.77,11.0,197.0,5.58,4.14,3.04,5.69,8.0,121.0,6.61,7.09,4.75,10.43,0.9,458.0
AK,27036,WELLSPRING HOME HEALTH CENTER,201 E SWANSON AVE  STE 7,WASILLA,99654,Yes,Yes,No,Yes,Yes,Yes,2.0,65.4,35.6,60.1,70.1,61.7,61.8,62.8,7.7,18.0,18.0,0.0,70.6,0.9,98.2,156.0,217.0,71.89,75.22,67.89,81.24,6.0,96.0,6.25,4.21,2.91,6.24,11.0,81.0,13.58,11.39,7.46,16.47,0.9,437.0
AK,27037,SEARHC HOME HEALTH AGENCY,209 MOLLER AVE STE 102,SITKA,99835,Yes,Yes,Yes,Yes,No,No,2.5,97.3,50.0,59.9,72.8,63.9,80.1,67.8,9.7,0.9,0.9,0.0,89.2,5.4,97.3,42.0,90.0,46.67,52.95,41.45,63.52,14.321452702702702,18.0,3.9466250000000005,3.912418918918919,2.808114864864865,5.427471283783784,8.0,56.0,14.29,11.0,6.85,17.29,1.22,182.0
AK,27038,"KENAI PENINSULA HOME HEALTH, LLC",44332 STERLING HWY SUITE 42,SOLDOTNA,99669,Yes,Yes,No,No,No,No,2.5,99.0,58.6,74.5,77.8,70.9,58.5,73.1,15.2,15.4,15.4,0.4,82.5,0.8,100.0,313.0,492.0,63.62,68.27,63.87,72.41,6.0,177.0,3.39,3.85,2.71,5.34,29.0,277.0,10.47,11.01,7.89,15.18,0.94,591.0
AL,17000,ALABAMA DEPARTMENT OF PUBLIC HEALTH HOME CARE,"201 MONROE STREET, THE RSA TOWER,  SUITE 1200",MONTGOMERY,36104,Yes,Yes,Yes,Yes,Yes,Yes,3.0,94.0,42.5,86.7,86.3,87.1,82.4,82.3,15.6,9.7,9.7,0.0,95.7,1.5,97.9,555.0,720.0,77.08,86.26,82.7,89.53,14.0,318.0,4.4,3.81,2.79,5.14,34.0,348.0,9.77,8.79,6.62,11.54,0.97,1624.0
AL,17009,ENHABIT HOME HEALTH,"2970 LORNA ROAD, STE 104",VESTAVIA HILLS,35216,Yes,Yes,Yes,Yes,Yes,Yes,3.5,97.7,61.6,87.7,87.4,88.0,85.7,87.4,16.4,9.3,9.3,0.2,98.2,0.8,99.5,4542.0,6057.0,74.99,80.68,79.51,81.79,103.0,2958.0,3.48,3.74,3.22,4.38,443.0,3393.0,13.06,12.27,11.37,13.34,1.04,13044.0
AL,17013,CENTERWELL HOME HEALTH,1239 RUCKER BLVD,ENTERPRISE,36330,Yes,Yes,Yes,No,No,Yes,4.0,99.6,62.1,87.4,87.2,87.2,86.5,82.1,13.6,15.3,15.3,1.1,95.0,0.6,99.7,422.0,524.0,80.53,84.37,80.64,87.49,5.0,210.0,2.38,3.62,2.52,5.06,34.0,288.0,11.81,11.05,8.33,14.26,0.9,1077.0
AL,17014,AMEDISYS HOME HEALTH,68278 MAIN STREET,BLOUNTSVILLE,35031,Yes,Yes,Yes,Yes,Yes,Yes,4.0,99.8,62.7,88.6,90.3,89.8,89.0,85.7,14.3,12.8,12.8,0.0,98.1,2.1,97.0,272.0,372.0,73.12,79.97,75.27,84.51,7.0,170.0,4.12,3.93,2.92,5.61,28.0,229.0,12.23,10.32,7.83,13.88,0.96,663.0
AL,17016,SOUTHEAST ALABAMA HOMECARE,804 GLOVER AVENUE,ENTERPRISE,36330,Yes,Yes,Yes,Yes,Yes,Yes,4.0,99.6,64.2,89.5,88.9,88.9,90.0,85.6,15.0,12.7,12.7,0.5,98.7,0.4,100.0,458.0,546.0,83.88,88.48,84.94,91.42,5.0,253.0,1.98,3.52,2.48,4.96,37.0,289.0,12.8,12.52,9.42,16.4,0.98,890.0
AL,17018,CENTERWELL HOME HEALTH,"3225 RAINBOW DRIVE, SUITE 256",RAINBOW CITY,35906,Yes,Yes,Yes,Yes,Yes,Yes,5.0,99.9,85.0,96.9,94.2,95.8,93.5,96.0,14.8,10.0,10.0,0.0,99.1,1.4,98.8,698.0,986.0,70.79,76.61,73.16,79.54,6.0,303.0,1.98,3.27,2.27,4.5,52.0,593.0,8.77,8.87,6.83,11.16,1.04,2981.0
AL,17020,AMEDISYS HOME HEALTH CARE,"3262 OLD SHELL ROAD, STE B",MOBILE,36607,Yes,Yes,Yes,Yes,Yes,Yes,4.5,99.9,71.3,89.3,92.7,88.9,95.6,86.9,16.8,10.3,10.3,0.3,98.5,0.6,97.6,582.0,813.0,71.59,78.21,74.65,81.37,11.0,414.0,2.66,3.52,2.56,4.89,53.0,418.0,12.68,10.94,8.62,13.48,1.02,1476.0
AL,17024,SOUTHEAST ALABAMA HOMECARE,"1435 ROSS CLARK CIRCLE, SUITE 2",DOTHAN,36301,Yes,Yes,Yes,Yes,Yes,Yes,4.0,99.4,71.0,91.0,92.4,90.4,89.5,85.2,17.7,8.9,8.9,0.1,98.9,0.5,100.0,833.0,1050.0,79.33,83.78,81.17,86.04,17.0,497.0,3.42,3.85,2.83,5.15,71.0,553.0,12.84,12.26,9.79,14.9,0.97,1600.0
AL,17025,SAAD HEALTHCARE,"1515 UNIVERSITY BLVD, SOUTH",MOBILE,36609,Yes,Yes,Yes,Yes,Yes,Yes,2.0,91.3,41.9,74.2,73.0,77.1,79.1,75.4,15.6,8.6,8.6,0.2,97.0,0.8,96.4,891.0,1281.0,69.56,73.3,70.79,75.85,22.0,548.0,4.01,4.19,3.18,5.7,90.0,741.0,12.15,11.89,10.12,14.46,0.98,2252.0
AL,17026,KINDRED AT HOME,"2100 RIVERCHASE CTR, STE 450",HOOVER,35244,Yes,Yes,Yes,Yes,Yes,Yes,4.5,100.0,64.6,91.5,89.4,92.4,92.1,90.1,17.2,9.0,9.0,0.2,97.3,1.4,99.8,640.0,959.0,66.74,72.93,69.9,76.24,13.0,348.0,3.74,3.77,2.7,5.14,72.0,607.0,11.86,10.7,8.77,12.98,1.02,1899.0
AL,17027,DECATUR MORGAN HOMECARE,"2708 HIGHWAY 31 SOUTH, SUITE B",DECATUR,35603,Yes,Yes,Yes,Yes,Yes,Yes,4.0,99.9,71.0,88.4,88.0,92.1,89.7,85.1,14.4,10.1,10.1,0.3,99.5,1.0,99.8,1516.0,1853.0,81.81,87.22,85.17,89.09,23.0,853.0,2.7,3.17,2.42,4.1,111.0,1010.0,10.99,10.87,9.14,12.92,0.98,2713.0
AL,17034,AVEANNA HOME HEALTH,1390 NORTH MCKENZIE STREET,FOLEY,36535,Yes,Yes,Yes,Yes,Yes,Yes,3.5,99.5,73.9,85.6,87.9,87.3,84.2,83.1,13.4,11.8,11.8,0.0,98.7,0.9,99.4,760.0,997.0,76.23,80.73,77.76,83.26,20.0,408.0,4.9,4.44,3.26,6.05,55.0,479.0,11.48,10.86,8.64,13.45,0.96,2213.0
AL,17035,INFIRMARY HOMECARE,"6001 AIRPORT BOULEVARD, STE B",MOBILE,36608,Yes,Yes,Yes,Yes,Yes,Yes,4.5,99.6,72.2,87.2,89.2,88.0,92.3,85.7,9.6,8.7,8.7,0.2,97.1,0.6,100.0,642.0,805.0,79.75,83.28,80.55,85.78,17.0,514.0,3.31,3.86,2.86,4.98,37.0,389.0,9.51,9.31,7.18,12.1,0.92,1146.0
AL,17037,BAPTIST HOME HEALTH,"451 ST. LUKE'S DRIVE, SUITE 451",MONTGOMERY,36117,Yes,Yes,Yes,Yes,Yes,Yes,4.0,99.9,66.1,89.9,89.4,91.8,91.7,84.6,17.7,11.5,11.5,0.2,99.6,1.0,99.8,465.0,568.0,81.87,89.06,85.68,91.84,12.0,292.0,4.11,3.9,2.88,5.28,31.0,299.0,10.37,10.12,7.59,13.21,1.0,801.0
AL,17039,AMEDISYS HOME HEALTH OF HUNTSVILLE,"250 CHATEAU DRIVE SW, SUITE 245",HUNTSVILLE,35801,Yes,Yes,Yes,Yes,Yes,Yes,4.0,100.0,79.3,89.8,91.6,95.5,87.2,90.0,18.8,11.8,11.8,0.4,95.5,0.7,96.8,1235.0,1714.0,72.05,77.78,75.42,79.82,40.0,678.0,5.9,5.02,3.91,6.57,122.0,945.0,12.91,12.57,10.78,14.66,1.07,2841.0
AL,17048,CENTERWELL HOME HEALTH,1204 W MAGNOLIA AVENUE,GENEVA,36340,Yes,Yes,Yes,Yes,No,Yes,3.5,100.0,66.7,86.4,82.5,90.1,83.6,86.8,17.0,10.1,10.1,0.9,97.5,0.7,100.0,254.0,342.0,74.27,77.17,72.14,81.48,1.0,108.0,0.93,3.56,2.47,5.1,26.0,220.0,11.82,12.3,8.99,16.43,1.03,768.0
AL,17050,SPECTRUM HOME HEALTH AGENCY,"1310 PULASKI PIKE, UNIT A",HUNTSVILLE,35816,Yes,Yes,Yes,Yes,Yes,Yes,2.0,97.3,72.1,70.1,66.5,74.6,66.8,62.3,13.867232669099073,11.63344092057255,11.63344092057255,0.7,96.0,0.0,100.0,17.0,33.0,51.52,60.7,44.14,76.26,14.321452702702702,6.0,3.9466250000000005,3.912418918918919,2.808114864864865,5.427471283783784,34.988546018056866,7.0,10.245278264384853,10.24390782913354,7.124472443066972,14.673847190405604,0.94,97.0
AL,17051,AMEDISYS HOME HEALTH LAKESHORE OF BIRMINGHAM,"2204 LAKESHORE DRIVE, SUITE 200",HOMEWOOD,35209,Yes,Yes,Yes,Yes,Yes,Yes,4.5,99.8,66.8,91.6,92.5,91.9,91.2,92.4,15.0,11.0,11.0,0.1,98.0,0.7,99.2,985.0,1253.0,78.61,83.24,80.8,85.45,17.0,565.0,3.01,3.69,2.76,4.99,59.0,709.0,8.32,8.84,7.15,11.13,0.99,1697.0
AL,17052,CENTERWELL HOME HEALTH,"150 WEST SECTION AVENUE, STE 100",FOLEY,36535,Yes,Yes,Yes,Yes,Yes,Yes,4.0,99.9,91.3,84.8,85.9,86.2,88.5,79.8,13.6,13.3,13.3,0.0,98.0,1.6,100.0,721.0,844.0,85.43,85.96,83.48,88.19,10.0,363.0,2.75,3.94,2.81,5.34,42.0,471.0,8.92,10.45,7.93,13.32,1.01,1454.0
AL,17053,ENCOMPASS HEALTH HOME HEALTH,"3379 WEST MAIN STREET, SUITE 3",DOTHAN,36305,Yes,Yes,Yes,Yes,Yes,Yes,4.0,97.8,62.7,89.2,91.9,89.8,87.9,91.8,15.2,12.9,12.9,0.0,97.7,1.4,98.9,1759.0,2279.0,77.18,81.68,79.93,83.44,29.0,957.0,3.03,3.57,2.77,4.52,168.0,1301.0,12.91,12.47,10.94,14.19,1.04,4963.0
AL,17054,CENTERWELL HOME HEALTH,"2100 SOUTHBRIDGE PKWY, SUITE 480",BIRMINGHAM,35209,Yes,Yes,Yes,Yes,Yes,Yes,4.5,99.7,69.3,97.9,96.0,94.0,86.9,93.4,15.6,11.8,11.8,0.4,97.5,0.6,99.0,399.0,556.0,71.76,80.3,76.01,84.0,6.0,195.0,3.08,3.59,2.53,5.06,31.0,333.0,9.31,8.31,6.35,10.88,1.02,1002.0
AL,17055,CENTERWELL HOME HEALTH,1988 FAIRVIEW AVENUE,PRATTVILLE,36066,Yes,Yes,Yes,Yes,Yes,Yes,4.0,99.7,67.7,91.4,86.7,91.7,85.3,84.7,14.0,9.9,9.9,0.1,98.2,0.5,99.8,385.0,509.0,75.64,82.2,77.73,85.62,5.0,222.0,2.25,3.46,2.42,4.71,30.0,272.0,11.03,9.78,7.25,12.88,1.03,790.0
AL,17056,CENTERWELL HOME HEALTH,"11123 CHANTILLY PARKWAY, UNIT L",PIKE ROAD,36064,Yes,Yes,Yes,Yes,Yes,Yes,4.0,99.4,69.3,90.3,86.2,89.0,94.6,85.2,15.2,7.5,7.5,0.2,98.6,0.4,99.8,331.0,484.0,68.39,74.57,70.22,79.06,6.0,216.0,2.78,3.55,2.5,4.97,31.0,246.0,12.6,10.84,8.07,14.33,1.08,872.0
AL,17058,CENTERWELL HOME HEALTH,"9037 INDEPENDENCE AVENUE, SUITE B",DAPHNE,36526,Yes,Yes,Yes,Yes,Yes,Yes,4.0,98.0,77.6,89.6,87.4,89.8,90.3,87.4,16.3,10.9,10.9,0.1,97.7,0.5,99.5,773.0,1060.0,72.92,74.85,72.24,77.13,11.0,358.0,3.07,4.02,2.94,5.39,76.0,648.0,11.73,12.71,10.52,15.21,1.06,2174.0
AL,17063,INTREPID USA HEALTHCARE SERVICES,"2700 CORPORATE DRIVE, SUITE 200",BIRMINGHAM,35242,Yes,Yes,Yes,Yes,Yes,Yes,3.2422312786551197,94.09778357235986,71.06459926017263,78.76185241344453,79.96310174012447,81.67081019687026,79.42103969998708,75.8796644896914,13.867232669099073,11.63344092057255,11.63344092057255,0.3854331202206343,92.03302143787754,1.0009491042828331,97.7465119033519,470.7755026520291,2.0,71.59109411619588,76.5523794251881,69.80250894288885,82.4674762550882,14.321452702702702,249.1084323712507,3.9466250000000005,3.912418918918919,2.808114864864865,5.427471283783784,34.988546018056866,1.0,10.245278264384853,10.24390782913354,7.124472443066972,14.673847190405604,0.9690223239839725,1.0
AL,17066,SPRINGHILL HOME HEALTH AND HOSPICE,10 MOBILE STREET,MOBILE,36607,Yes,Yes,Yes,Yes,Yes,Yes,5.0,99.6,94.3,96.4,94.9,96.9,95.4,99.0,14.9,9.6,9.6,0.0,99.6,1.3,100.0,272.0,419.0,64.92,74.01,68.88,78.5,8.0,184.0,4.35,3.99,2.9,5.56,47.0,359.0,13.09,9.81,7.88,12.25,1.05,929.0
AL,17069,AMEDISYS HOME HEALTH OF FOLEY,"200 WEST LAUREL AVENUE, SUITE 210",FOLEY,36535,Yes,Yes,Yes,Yes,Yes,Yes,4.5,99.8,77.6,88.6,92.5,92.6,93.8,85.8,16.2,11.3,11.3,0.2,99.6,0.8,98.8,1026.0,1355.0,75.72,80.4,78.11,82.61,29.0,739.0,3.92,4.09,3.14,5.23,96.0,787.0,12.2,12.07,10.03,14.31,1.03,2495.0
AL,17070,AMEDISYS HOME HEALTH OF CITRONELLE,"19375 NORTH 3RD STREET, SUITE 101",CITRONELLE,36522,Yes,Yes,Yes,Yes,Yes,Yes,4.0,100.0,62.4,90.2,93.3,93.0,89.9,86.2,19.6,13.3,13.3,0.0,98.0,0.6,100.0,248.0,333.0,74.47,81.68,76.46,86.15,1.0,128.0,0.78,3.34,2.36,4.69,29.0,210.0,13.81,10.87,8.08,14.2,0.99,689.0
AL,17071,CENTERWELL HOME HEALTH,20 ALMON DRIVE SUITE C,MOULTON,35650,Yes,Yes,Yes,Yes,Yes,Yes,5.0,99.9,79.6,100.0,97.6,97.4,91.3,98.7,15.7,10.9,10.9,0.0,96.1,1.5,96.7,2496.0,3486.0,71.6,77.4,75.55,79.09,24.0,1102.0,2.18,2.92,2.21,3.86,261.0,2059.0,12.68,12.41,11.21,13.99,1.06,9933.0
AL,17072,AMEDISYS HOME HEALTH OF GREENVILLE,525 GREENVILLE BYPASS,GREENVILLE,36037,Yes,Yes,Yes,No,No,Yes,4.5,99.4,57.1,92.0,89.8,91.9,90.1,90.3,11.3,13.7,13.7,0.1,98.1,1.3,98.3,243.0,336.0,72.32,79.09,73.55,83.78,5.0,124.0,4.03,3.92,2.69,5.47,18.0,156.0,11.54,10.29,7.34,14.44,0.96,660.0
AL,17078,AMEDISYS HOME HEALTH OF REFORM,96 COURT SQUARE,CARROLLTON,35447,Yes,Yes,Yes,Yes,Yes,Yes,4.5,100.0,79.1,90.8,92.5,92.3,88.8,89.1,11.8,7.1,7.1,0.0,99.3,0.7,99.0,299.0,392.0,76.28,81.38,76.76,85.24,3.0,131.0,2.29,3.57,2.51,5.18,30.0,219.0,13.7,12.74,9.4,16.77,1.03,798.0
AL,17079,ENHABIT HOME HEALTH,131 1ST AVENUE NW,VERNON,35592,Yes,Yes,No,Yes,No,Yes,4.0,99.1,55.1,90.6,87.6,88.8,86.9,88.1,14.1,13.8,13.8,0.0,98.7,2.6,99.6,149.0,206.0,72.33,76.3,69.96,82.35,2.0,83.0,2.41,3.77,2.52,5.53,20.0,114.0,17.54,14.52,9.86,21.11,1.04,687.0
AL,17080,DCH HOME HEALTH CARE AGENCY,1110 DR EDWARD HILLARD DRIVE,TUSCALOOSA,35401,Yes,Yes,Yes,Yes,Yes,Yes,3.5,99.4,79.4,85.9,81.4,87.2,89.1,76.5,16.9,7.7,7.7,0.2,99.5,0.2,99.8,586.0,749.0,78.24,84.46,81.36,87.4,10.0,327.0,3.06,3.51,2.5,4.83,34.0,363.0,9.37,9.75,7.35,12.69,0.94,1037.0
AL,17082,CV HOME HEALTH OF BIBB COUNTY,"155 BIRMINGHAM ROAD, SUITES 118, 123, & 125",CENTREVILLE,35042,Yes,Yes,No,No,No,Yes,3.0,87.3,76.4,71.5,87.0,74.7,83.0,83.2,9.8,11.2,11.2,0.4,97.8,0.6,99.8,31.0,65.0,47.69,56.43,44.43,68.62,3.0,27.0,11.11,4.16,2.93,6.13,9.0,54.0,16.67,12.02,7.28,18.53,1.06,244.0
AL,17084,CENTERWELL HOME HEALTH,200 CENTRAL PARK PLACE,SELMA,36701,Yes,Yes,Yes,Yes,Yes,Yes,4.5,100.0,96.3,93.4,90.5,92.1,96.5,89.7,18.4,18.2,18.2,0.0,99.1,0.3,99.5,163.0,224.0,72.77,83.18,76.26,89.01,3.0,109.0,2.75,3.64,2.43,5.15,18.0,146.0,12.33,9.53,6.66,13.24,1.0,480.0
AL,17085,COOSA VALLEY HOMECARE,"209 WEST SPRING STREET, SUIT 305",SYLACAUGA,35150,Yes,Yes,Yes,Yes,Yes,Yes,4.5,100.0,57.1,89.6,91.8,87.9,89.8,85.0,13.5,13.5,13.5,0.0,91.0,0.5,100.0,335.0,407.0,82.31,91.38,86.83,95.2,5.0,220.0,2.27,3.4,2.51,4.9,25.0,239.0,10.46,9.93,7.4,13.59,1.07,724.0
AL,17086,ALABAMA HOMECARE,"15 CLAIBORNE STREET, SUITE C",CAMDEN,36726,Yes,Yes,Yes,Yes,Yes,Yes,4.0,98.6,63.2,94.5,87.4,87.8,97.5,84.3,11.7,14.4,14.4,0.7,95.7,0.6,100.0,208.0,253.0,82.21,83.49,78.03,87.33,2.0,56.0,3.57,3.8,2.7,5.41,9.0,115.0,7.83,10.05,6.55,15.26,0.84,533.0
AL,17088,FAYETTE MEDICAL CENTER HOMECARE,102 2ND AVENUE SE,FAYETTE,35555,Yes,Yes,Yes,Yes,Yes,Yes,5.0,100.0,72.6,95.4,94.5,89.9,94.6,94.4,12.2,10.8,10.8,0.6,99.6,2.4,100.0,257.0,321.0,80.06,87.3,82.52,92.03,5.0,140.0,3.57,3.78,2.58,5.22,21.0,195.0,10.77,10.02,7.03,13.88,0.95,744.0
AL,17089,CULLMAN REGIONAL HOME CARE,"1938 AL HIGHWAY 157, SUITE 102",CULLMAN,35058,Yes,Yes,Yes,No,Yes,Yes,3.0,98.1,62.3,82.4,86.1,87.6,81.5,81.5,14.9,7.0,7.0,0.2,99.1,0.9,100.0,450.0,545.0,82.57,88.51,85.04,91.53,10.0,288.0,3.47,3.75,2.7,5.09,14.0,278.0,5.04,6.0,4.1,8.47,1.0,778.0
AL,17090,CENTERWELL HOME HEALTH,114 N ACADEMY AVENUE,BUTLER,36904,Yes,Yes,No,No,No,Yes,4.5,99.8,73.3,95.0,92.4,91.7,91.5,88.6,16.3,16.2,16.2,0.0,74.6,0.5,100.0,336.0,462.0,72.73,80.04,75.5,84.12,3.0,160.0,1.88,3.45,2.46,4.93,26.0,267.0,9.74,8.91,6.63,11.99,0.98,766.0
AL,17091,HALE COUNTY HOSPITAL HOME HEALTH,1207 STATE STREET,GREENSBORO,36744,Yes,Yes,Yes,Yes,No,Yes,2.5,97.4,58.9,79.6,79.4,88.0,77.3,74.7,22.2,11.3,11.3,1.8,97.0,0.4,100.0,127.0,162.0,78.4,82.38,75.08,88.34,2.0,67.0,2.99,3.74,2.6,5.4,13.0,86.0,15.12,13.12,8.63,19.78,1.08,367.0
AL,17092,ENHABIT HOME HEALTH,194 WILLIAM E HILL DRIVE,CARROLLTON,35447,Yes,Yes,No,Yes,No,Yes,4.0,99.1,63.0,86.3,91.7,86.5,81.4,91.0,9.0,12.2,12.2,0.7,97.2,1.4,98.1,90.0,133.0,67.67,73.05,64.58,79.85,2.0,45.0,4.44,3.95,2.69,5.76,8.0,70.0,11.43,10.17,6.46,15.41,0.98,573.0
AL,17093,DEKALB REGIONAL HOME HEALTH,"1706 GLENN BOULEVARD, SUITE 3",FORT PAYNE,35968,Yes,Yes,Yes,Yes,Yes,Yes,5.0,100.0,81.2,100.0,94.5,95.7,92.3,93.5,13.3,15.6,15.6,0.0,98.7,1.1,100.0,152.0,190.0,80.0,84.66,78.61,89.77,1.0,99.0,1.01,3.55,2.39,5.15,13.0,105.0,12.38,10.72,7.32,15.52,0.88,439.0
AL,17094,CHEROKEE HOME HEALTH,"104C NORTHWOOD DRIVE, STE A-1",CENTRE,35960,Yes,Yes,Yes,No,Yes,Yes,4.5,100.0,53.6,93.2,90.8,97.1,91.5,90.0,15.2,8.3,8.3,0.0,98.9,1.1,100.0,292.0,370.0,78.92,84.47,80.59,88.66,3.0,153.0,1.96,3.47,2.45,4.88,25.0,175.0,14.29,12.98,9.53,17.48,0.98,784.0
AL,17095,ATHENS-LIMESTONE HOMECARE,"725 WEST MARKET STREET, SUITE A",ATHENS,35611,Yes,Yes,Yes,Yes,Yes,No,4.0,99.3,60.1,89.2,93.8,86.9,89.0,85.4,11.8,14.0,14.0,0.0,99.1,0.9,99.9,525.0,652.0,80.52,87.89,84.24,91.0,12.0,332.0,3.61,3.91,2.87,5.14,34.0,327.0,10.4,9.41,7.02,12.19,0.97,1181.0
AL,17096,TROY REGIONAL MEDICAL CENTER HOME HEALTH,798 HIGHWAY 231 SOUTH,TROY,36081,Yes,Yes,Yes,Yes,Yes,Yes,4.0,99.9,49.2,89.8,89.5,88.4,87.5,85.5,13.2,17.0,17.0,0.1,99.6,0.0,100.0,291.0,368.0,79.08,83.34,78.64,87.32,1.0,92.0,1.09,3.54,2.25,5.09,15.0,170.0,8.82,9.79,6.48,13.99,0.91,680.0
AL,17097,"CLAY COUNTY HOSPITAL HOME CARE, LLC",83825 HIGHWAY 9,ASHLAND,36251,Yes,Yes,Yes,No,Yes,Yes,3.5,99.7,49.3,88.2,87.7,89.1,89.6,84.8,16.5,19.0,19.0,0.7,98.7,2.2,100.0,174.0,221.0,78.73,83.38,77.68,88.57,5.0,95.0,5.26,4.13,2.75,6.06,19.0,122.0,15.57,13.85,9.24,19.82,0.93,446.0
AL,17100,MARION REGIONAL HOMECARE,"234 1ST AVENUE SW, SUITE 2",HAMILTON,35570,Yes,Yes,Yes,Yes,Yes,Yes,4.5,100.0,78.2,89.8,89.9,93.2,83.5,88.8,12.1,18.5,18.5,0.9,97.5,0.0,100.0,148.0,177.0,83.62,89.4,82.31,94.06,6.0,85.0,7.06,4.31,3.04,6.07,8.0,68.0,11.76,10.56,6.66,16.25,0.88,427.0
AL,17103,BRYAN W. WHITFIELD MEMORIAL HOSPITAL HOME HEALTH,105 HIGHWAY 80 EAST,DEMOPOLIS,36732,Yes,Yes,Yes,Yes,No,Yes,2.5,85.5,40.6,65.5,53.1,81.0,80.6,68.9,13.8,3.9,3.9,0.0,87.2,2.1,100.0,83.0,118.0,70.34,73.73,64.94,81.3,2.0,33.0,6.06,4.0,2.78,5.61,1.0,56.0,1.79,7.22,4.2,12.42,0.8,324.0
AL,17104,HIGHLANDS HOME HEALTH,901 HEROES DRIVE,SCOTTSBORO,35768,Yes,Yes,Yes,Yes,No,Yes,2.5,98.9,60.8,76.2,84.6,77.1,69.0,75.5,14.3,14.5,14.5,0.0,98.1,1.3,100.0,147.0,238.0,61.76,68.57,61.64,74.46,3.0,104.0,2.88,3.77,2.55,5.52,9.0,98.0,9.18,8.77,5.66,12.94,0.93,455.0
AL,17106,EVERGREEN HOME CARE,308 SOUTH MAIN STREET,EVERGREEN,36401,Yes,Yes,No,No,No,Yes,2.0,92.6,88.2,72.0,73.0,74.5,69.5,78.0,29.9,9.9,9.9,1.4,93.9,3.0,100.0,100.0,161.0,62.11,66.76,59.56,73.45,5.0,83.0,6.02,4.24,2.91,6.07,12.0,76.0,15.79,12.74,8.18,19.2,1.13,433.0
AL,17107,SUNCREST HOME HEALTH,"222-224 7TH STREET SOUTH, SUITE 224",CLANTON,35045,Yes,Yes,Yes,Yes,Yes,Yes,4.0,99.7,67.9,85.6,87.8,88.9,91.0,85.8,14.3,9.4,9.4,0.1,98.5,1.5,98.8,333.0,422.0,78.91,84.76,80.67,88.4,6.0,191.0,3.14,3.64,2.62,4.97,28.0,201.0,13.93,12.59,9.11,16.61,0.99,850.0
AL,17109,NORTHWEST HOME HEALTH - HALEYVILLE,42030 HIGHWAY 195 SUITE D,HALEYVILLE,35565,Yes,Yes,Yes,Yes,No,Yes,2.5,95.4,42.7,81.1,83.8,84.7,79.9,62.5,15.6,6.8,6.8,2.2,84.2,0.5,100.0,129.0,169.0,76.33,80.6,73.78,86.92,3.0,117.0,2.56,3.7,2.52,5.29,13.0,96.0,13.54,10.69,7.12,15.68,0.92,285.0
AL,17112,JACKSON MEDICAL CENTER HOME HEALTH,3748N COLLEGE AVENUE,JACKSON,36545,Yes,Yes,No,Yes,No,Yes,2.5,100.0,46.1,74.2,79.8,72.8,76.6,61.9,18.7,19.3,19.3,0.6,99.6,1.6,100.0,197.0,245.0,80.41,81.96,76.79,86.46,3.0,115.0,2.61,3.76,2.67,5.33,16.0,137.0,11.68,11.9,8.28,17.92,1.0,522.0
AL,17115,ALABAMA HOMECARE OF GADSDEN,"300 MEDICAL CENTER DRIVE, SUITE 403",GADSDEN,35903,Yes,Yes,Yes,Yes,Yes,Yes,4.5,99.8,79.8,95.2,90.2,91.7,95.8,92.4,16.6,10.7,10.7,0.3,99.8,0.4,100.0,271.0,325.0,83.38,87.06,82.26,90.63,9.0,141.0,6.38,4.43,3.01,6.35,20.0,159.0,12.58,12.25,8.99,16.98,0.97,585.0
AL,17116,IVY CREEK HOME HEALTH OF ELMORE,500 HOSPITAL DRIVE,WETUMPKA,36092,Yes,Yes,Yes,Yes,No,Yes,3.5,96.0,46.7,91.1,87.8,88.1,72.2,85.5,16.6,12.8,12.8,0.0,92.9,0.2,100.0,304.0,416.0,73.08,80.59,75.81,84.79,7.0,216.0,3.24,3.65,2.62,5.19,37.0,241.0,15.35,12.36,9.45,15.67,1.04,780.0
AL,17117,LAKE MARTIN HOME HEALTH,729 EAST SOUTH STREET,DADEVILLE,36853,Yes,Yes,Yes,Yes,Yes,Yes,3.5,91.1,71.6,87.6,85.3,86.5,84.5,81.3,12.5,11.7,11.7,0.1,91.1,0.9,100.0,189.0,249.0,75.9,81.75,76.22,86.86,1.0,98.0,1.02,3.53,2.52,5.06,16.0,137.0,11.68,10.74,7.58,15.26,1.0,590.0
AL,17118,"AMEDISYS HH, A LAWRENCE MEDICAL CENTER PARTNER","15190 COURT STREET, SUITE B",MOULTON,35650,Yes,Yes,Yes,Yes,Yes,Yes,4.5,99.9,68.6,91.9,92.1,92.1,86.3,90.1,15.6,9.1,9.1,0.1,98.5,0.6,99.3,345.0,469.0,73.56,80.78,76.37,84.66,7.0,205.0,3.41,3.7,2.64,5.08,37.0,268.0,13.81,12.1,9.0,15.37,1.07,849.0
AL,17119,HUNTSVILLE HOSPITAL HOMECARE,"500 BOULEVARD SOUTH SW, SUITE 203",HUNTSVILLE,35802,Yes,Yes,Yes,Yes,Yes,Yes,3.5,99.5,75.1,86.4,86.4,87.4,86.7,81.4,15.8,10.2,10.2,0.0,99.3,0.4,99.3,1557.0,1924.0,80.93,85.9,84.01,87.74,44.0,1076.0,4.09,4.22,3.36,5.28,80.0,874.0,9.15,8.98,7.46,10.87,0.99,2537.0
AL,17121,CENTERWELL HOME HEALTH,1309 ANTIOCH ROAD,ANDALUSIA,36420,Yes,Yes,Yes,Yes,No,Yes,4.0,99.6,68.2,92.5,88.3,88.4,90.4,85.0,14.8,11.4,11.4,0.7,99.6,1.0,99.9,352.0,447.0,78.75,85.27,81.08,89.2,7.0,182.0,3.85,3.92,2.78,5.29,28.0,300.0,9.33,9.26,6.81,12.5,0.97,1016.0
AL,17123,EAMC - LANIER HOME HEALTH,1806 44TH ST.,VALLEY,36854,Yes,Yes,Yes,Yes,Yes,Yes,4.5,100.0,66.0,92.5,92.1,90.4,87.8,88.2,16.4,15.2,15.2,0.0,99.9,0.7,100.0,362.0,456.0,79.39,85.81,81.89,89.69,5.0,226.0,2.21,3.45,2.4,4.94,31.0,235.0,13.19,11.5,8.54,15.63,0.91,865.0
AL,17124,DALE MEDICAL CENTER HOME HEALTH,311 JAMES STREET,OZARK,36360,Yes,Yes,No,Yes,Yes,Yes,3.0,92.4,58.7,82.2,84.3,83.3,70.0,78.2,12.6,16.3,16.3,0.0,68.6,0.6,99.4,186.0,236.0,78.81,83.6,77.62,88.38,0.0,98.0,0.0,3.41,2.29,5.08,10.0,132.0,7.58,8.59,5.67,13.04,1.25,378.0
AL,17125,KELLER HOME CARE,203 4TH AVENUE SW,RED BAY,35582,Yes,Yes,Yes,Yes,Yes,Yes,4.0,99.8,82.3,88.3,91.3,90.2,90.7,85.6,17.6,9.8,9.8,0.4,99.5,1.3,99.7,682.0,870.0,78.39,82.97,80.3,85.48,13.0,380.0,3.42,3.8,2.74,5.18,68.0,457.0,14.88,13.81,11.34,16.52,0.99,1809.0
AL,17128,MEDICAL CENTERS HOMECARE,"5850 US HWY 431, SUITE 34",ALBERTVILLE,35950,Yes,Yes,Yes,Yes,Yes,Yes,5.0,99.8,92.9,96.0,93.4,94.4,90.8,97.5,12.2,11.8,11.8,0.4,99.7,0.5,99.8,835.0,1094.0,76.33,83.92,81.02,86.46,16.0,457.0,3.5,3.73,2.7,4.94,91.0,618.0,14.72,12.5,10.24,15.08,0.99,3058.0
AL,17129,HOMECARE OF EAST ALABAMA MEDICAL CENTER,"1661 SHUG JORDAN PKWY, UNIT 505",AUBURN,36830,Yes,Yes,Yes,Yes,Yes,Yes,4.5,99.5,74.8,91.0,92.4,92.6,91.6,90.3,13.5,12.5,12.5,0.0,96.4,1.0,98.3,647.0,807.0,80.17,85.17,82.01,87.88,17.0,488.0,3.48,3.94,2.95,5.31,36.0,416.0,8.65,8.85,6.79,11.06,0.9,1181.0
AL,17132,ALABAMA HOMECARE OF ONEONTA,"1104 2ND AVE EAST, SUITE C",ONEONTA,35121,Yes,Yes,Yes,Yes,No,No,4.5,98.8,85.2,97.0,94.3,97.8,93.5,100.0,17.2,11.4,11.4,0.0,98.5,2.0,99.8,373.0,509.0,73.28,80.48,76.25,84.19,9.0,185.0,4.86,4.12,2.98,5.63,24.0,186.0,12.9,12.17,8.73,16.01,1.13,882.0
AL,17134,LHC HOMECARE OF SOUTH ALABAMA,"1802 US HIGHWAY 84 WEST, SUITE A",OPP,36467,Yes,Yes,Yes,Yes,Yes,Yes,4.5,100.0,72.5,90.8,91.4,89.4,89.0,88.3,16.2,11.5,11.5,0.0,99.8,1.5,99.7,703.0,887.0,79.26,85.99,83.27,88.65,15.0,347.0,4.32,4.13,3.12,5.5,53.0,449.0,11.8,10.95,8.85,13.76,1.01,1630.0
AL,17135,COMMUNITY HOME HEALTH,1526 GILMER AVENUE,TALLASSEE,36078,Yes,Yes,Yes,Yes,Yes,Yes,2.5,95.2,51.4,77.5,77.1,79.5,62.1,76.6,15.2,16.5,16.5,0.5,98.5,1.5,100.0,119.0,158.0,75.32,80.91,74.1,87.36,2.0,70.0,2.86,3.75,2.6,5.49,9.0,103.0,8.74,9.03,6.02,14.23,0.88,340.0
AL,17136,RELIABLE HOME HEALTH,435 MEETING AVENUE,GEORGIANA,36033,Yes,Yes,No,No,No,Yes,2.0,74.1,43.5,63.4,57.9,70.1,65.4,60.9,7.1,10.9,10.9,0.5,76.1,0.8,99.6,73.0,109.0,66.97,70.41,59.77,79.04,0.0,25.0,0.0,3.76,2.53,5.38,7.0,64.0,10.94,11.08,6.99,16.87,0.97,380.0
AL,17138,L V STABLER MEMORIAL HOME HEALTH,"104 CAMELLIA AVENUE, SUITE B",GREENVILLE,36037,Yes,Yes,No,No,Yes,Yes,3.2422312786551197,94.09778357235986,71.06459926017263,78.76185241344453,79.96310174012447,81.67081019687026,79.42103969998708,75.8796644896914,13.867232669099073,11.63344092057255,11.63344092057255,0.3854331202206343,92.03302143787754,1.0009491042828331,97.7465119033519,470.7755026520291,515.5487200660612,71.59109411619588,76.5523794251881,69.80250894288885,82.4674762550882,14.321452702702702,249.1084323712507,3.9466250000000005,3.912418918918919,2.808114864864865,5.427471283783784,34.988546018056866,279.508198478191,10.245278264384853,10.24390782913354,7.124472443066972,14.673847190405604,0.9690223239839725,870.149787938347
AL,17142,ATMORE COMMUNITY HOME CARE,810 E CRAIG STREET,ATMORE,36502,Yes,Yes,Yes,Yes,Yes,Yes,4.0,99.0,62.5,93.5,89.5,93.1,88.2,93.0,27.3,10.9,10.9,0.0,99.5,0.3,100.0,125.0,171.0,73.1,78.95,72.63,84.55,1.0,86.0,1.16,3.55,2.53,5.05,21.0,91.0,23.08,17.16,11.79,24.03,0.96,403.0
AL,17143,D W MCMILLAN HOME HEALTH,114 W JACKSON STREET,BREWTON,36426,Yes,Yes,Yes,No,Yes,Yes,4.0,100.0,69.5,88.7,91.1,89.8,88.7,86.1,15.6,12.2,12.2,0.3,98.1,0.2,100.0,240.0,310.0,77.42,81.28,76.35,85.72,4.0,126.0,3.17,3.84,2.66,5.41,34.0,192.0,17.71,16.01,12.38,21.29,1.03,830.0
AL,17145,ASCENSION AT HOME,"2401 STEMLEY BRIDGE ROAD, SUITE 7",PELL CITY,35128,Yes,Yes,Yes,Yes,Yes,Yes,4.5,99.9,69.8,90.4,89.5,93.7,91.1,89.6,17.6,8.8,8.8,0.1,98.0,0.5,98.8,920.0,1182.0,77.83,84.21,81.71,86.73,23.0,688.0,3.34,3.62,2.69,4.81,100.0,736.0,13.59,11.93,10.0,13.94,1.01,2265.0
AL,17146,NORTHWEST HOME HEALTH,"711 HOSPITAL DRIVE, NE",RUSSELLVILLE,35653,Yes,Yes,No,No,No,Yes,2.5,99.4,52.7,77.0,84.3,68.3,55.3,73.6,17.5,8.5,8.5,0.0,98.8,1.2,100.0,85.0,125.0,68.0,72.05,63.61,80.42,2.0,64.0,3.13,3.86,2.66,5.64,6.0,62.0,9.68,10.2,6.0,16.35,0.99,192.0
AL,17147,PRIME HOME HEALTH OF LEE COUNTY,2125 EXECUTIVE PARK DRIVE,OPELIKA,36801,Yes,Yes,Yes,Yes,Yes,Yes,2.5,96.7,71.2,73.5,84.0,85.5,73.2,74.5,14.8,15.3,15.3,0.4,99.3,1.3,100.0,238.0,327.0,72.78,79.9,74.22,84.98,3.0,148.0,2.03,3.61,2.54,5.47,22.0,192.0,11.46,9.72,7.03,13.39,1.09,653.0
AL,17148,THOMAS HOME HEALTH,"7530 PARKER ROAD, SUITE 200",FAIRHOPE,36532,Yes,Yes,Yes,Yes,Yes,Yes,4.5,99.3,76.8,90.5,89.2,93.9,90.6,85.6,11.7,11.1,11.1,0.1,98.9,0.7,100.0,667.0,835.0,79.88,84.29,81.11,86.94,19.0,521.0,3.65,4.16,2.97,5.59,32.0,411.0,7.79,7.83,5.72,10.43,0.95,1300.0
AL,17149,ASCENSION AT HOME,"1900 INTERNATIONAL DRIVE, SUITE 250",BIRMINGHAM,35243,Yes,Yes,Yes,Yes,Yes,Yes,4.0,99.7,76.6,88.4,88.2,91.9,90.4,88.7,15.6,9.2,9.2,0.2,98.5,0.5,99.3,1364.0,1811.0,75.32,80.34,78.06,82.17,36.0,818.0,4.4,4.24,3.32,5.34,128.0,934.0,13.7,13.15,11.39,15.33,0.96,2893.0
AL,17151,CENTERWELL HOME HEALTH,"1900 LEIGHTON AVENUE, SUITE 102",ANNISTON,36207,Yes,Yes,Yes,Yes,Yes,Yes,4.0,99.7,56.4,89.7,84.8,89.0,90.6,80.6,15.0,10.1,10.1,0.4,97.8,1.1,100.0,265.0,380.0,69.74,75.77,70.81,80.38,2.0,140.0,1.43,3.38,2.37,4.79,17.0,198.0,8.59,8.06,5.64,11.64,0.96,811.0
AL,17152,CENTERWELL HOME HEALTH,1025 WEST FORT WILLIAMS ST,SYLACAUGA,35150,Yes,Yes,Yes,Yes,Yes,Yes,4.0,99.8,84.4,91.7,88.6,91.5,89.3,85.0,15.0,13.8,13.8,0.6,96.9,2.4,99.0,151.0,196.0,77.04,83.3,76.71,88.81,6.0,77.0,7.79,4.24,2.97,6.08,10.0,129.0,7.75,8.79,5.74,13.35,1.03,495.0
AL,17153,COMFORT CARE HOME HEALTH OF ALABASTER,240 VILLAGE DRIVE,PELHAM,35124,Yes,Yes,Yes,Yes,Yes,Yes,3.5,97.2,69.6,84.9,87.5,85.8,85.1,82.1,13.6,9.5,9.5,0.2,98.5,0.9,97.6,1791.0,2496.0,71.75,79.26,77.33,80.87,63.0,1110.0,5.68,4.96,3.97,6.09,146.0,1356.0,10.77,9.47,8.01,10.87,1.01,6278.0
AL,17154,AMEDISYS HOME HEALTH,"4735 NORREL DRIVE, SUITE 125",TRUSSVILLE,35173,Yes,Yes,Yes,Yes,Yes,Yes,4.5,99.7,88.1,92.6,87.4,95.3,90.9,88.5,13.5,7.4,7.4,0.1,99.5,0.2,99.7,245.0,341.0,71.85,77.71,72.06,82.12,2.0,174.0,1.15,3.35,2.39,4.62,15.0,188.0,7.98,8.23,5.73,11.15,0.99,455.0
AL,17155,ENHABIT HOME HEALTH,316 BEL AIR BLVD.,MOBILE,36606,Yes,Yes,Yes,Yes,Yes,Yes,3.5,84.9,54.1,89.5,85.8,90.2,90.4,89.0,16.1,11.7,11.7,0.2,98.4,0.6,98.7,297.0,389.0,76.35,79.95,75.48,83.47,6.0,176.0,3.41,3.85,2.67,5.49,22.0,205.0,10.73,11.03,7.87,14.95,0.97,636.0
AL,17157,AMEDISYS HOME HEALTH OF OPELIKA,"3320 SKYWAY DRIVE, SUITE 804",OPELIKA,36801,Yes,Yes,Yes,Yes,No,No,4.0,99.4,43.4,87.6,86.2,91.6,89.3,87.9,12.6,15.5,15.5,0.0,97.8,0.6,96.3,271.0,407.0,66.58,71.4,66.31,75.73,3.0,151.0,1.99,3.64,2.39,5.09,27.0,220.0,12.27,11.49,8.3,15.23,1.01,755.0
AL,17158,AMEDISYS HOME HEALTH OF FORT PAYNE,501 GREENHILL BLVD SUITE 150,FORT PAYNE,35967,Yes,Yes,Yes,Yes,Yes,Yes,4.5,100.0,69.6,91.0,90.0,95.2,89.4,86.1,13.1,12.2,12.2,0.5,99.6,1.9,99.1,806.0,1087.0,74.15,77.39,74.85,80.06,6.0,309.0,1.94,3.39,2.43,4.65,59.0,624.0,9.46,10.13,8.04,12.34,0.97,2447.0
AL,17159,AMEDISYS HOME HEALTH,2560 COUNTY ROAD 112,DOTHAN,36303,Yes,Yes,Yes,Yes,Yes,Yes,4.5,99.9,47.1,93.6,92.7,91.7,89.6,88.4,16.5,14.4,14.4,0.1,90.2,1.6,97.8,584.0,839.0,69.61,76.78,73.18,79.84,10.0,360.0,2.78,3.49,2.57,4.58,70.0,429.0,16.32,14.81,12.09,18.11,1.07,1906.0
AL,17160,ENCOMPASS HEALTH HOME HEALTH,205 FOB JAMES DRIVE,VALLEY,36854,Yes,Yes,Yes,Yes,Yes,Yes,4.0,98.3,44.0,86.9,87.6,90.2,81.3,96.0,12.3,13.1,13.1,0.0,99.8,1.7,99.3,309.0,397.0,77.83,85.85,81.55,89.94,4.0,212.0,1.89,3.39,2.39,4.88,22.0,218.0,10.09,8.96,6.45,12.43,1.09,868.0
AL,17161,CENTERWELL HOME HEALTH,"7067 OLD MADISON PIKE NW, SUITE 105",HUNTSVILLE,35806,Yes,Yes,Yes,Yes,Yes,Yes,4.5,99.6,69.7,94.8,91.1,89.9,90.1,91.6,15.9,11.8,11.8,0.0,96.2,0.6,99.6,597.0,920.0,64.89,71.03,68.01,74.47,9.0,252.0,3.57,3.79,2.71,5.18,45.0,613.0,7.34,6.98,5.42,8.89,1.16,1851.0
AL,17163,AMEDISYS HOME HEALTH OF MONROEVILLE,15 MAYFIELD STREET,MONROEVILLE,36460,Yes,Yes,Yes,Yes,Yes,Yes,5.0,100.0,58.2,94.4,93.3,100.0,100.0,93.3,18.0,16.5,16.5,0.0,99.8,0.6,99.8,247.0,314.0,78.66,82.15,76.38,86.58,0.0,89.0,0.0,3.36,2.35,4.81,20.0,177.0,11.3,12.9,9.16,17.75,0.92,687.0
AL,17164,KINDRED AT HOME,2740 HEADLAND AVE,DOTHAN,36303,Yes,Yes,Yes,Yes,Yes,Yes,4.0,99.9,87.2,87.8,87.3,86.4,86.9,85.2,14.2,9.0,9.0,0.3,98.4,0.8,99.6,616.0,817.0,75.4,81.02,77.99,83.82,9.0,290.0,3.1,3.77,2.69,5.3,48.0,472.0,10.17,9.97,8.13,12.53,1.0,1750.0
AL,17165,AMEDISYS HOME HEALTH OF FLORENCE,"412 S COURT STREET, SUITE 403",FLORENCE,35630,Yes,Yes,Yes,Yes,Yes,Yes,4.5,99.9,69.3,93.4,93.9,95.7,88.3,93.8,16.1,14.4,14.4,0.1,97.9,1.3,97.3,610.0,859.0,71.01,76.08,72.79,79.25,7.0,314.0,2.23,3.35,2.46,4.65,67.0,489.0,13.7,13.09,10.51,16.48,1.02,1897.0
AL,17166,CENTERWELL HOME HEALTH,118 6TH STREET SOUTH,CLANTON,35045,Yes,Yes,Yes,Yes,Yes,Yes,4.0,100.0,61.2,87.7,86.4,84.3,88.5,87.1,19.9,10.7,10.7,0.0,99.1,0.7,100.0,164.0,232.0,70.69,77.27,71.02,82.69,7.0,98.0,7.14,4.42,2.99,6.56,20.0,141.0,14.18,11.38,7.64,15.96,1.06,544.0
AL,17167,CENTERWELL HOME HEALTH,614 MARTIN ST N,PELL CITY,35125,Yes,Yes,Yes,Yes,Yes,Yes,5.0,100.0,89.1,95.6,92.8,96.7,92.2,95.9,14.3,5.5,5.5,0.0,100.0,1.5,100.0,164.0,255.0,64.31,70.2,63.27,75.73,1.0,69.0,1.45,3.7,2.52,5.34,17.0,156.0,10.9,10.08,6.92,14.19,1.04,574.0
AL,17168,CENTERWELL HOME HEALTH,824 WESTERN AMERICA DRIVE,MOBILE,36609,Yes,Yes,Yes,Yes,Yes,Yes,4.5,99.9,93.4,91.6,87.9,95.2,99.9,87.3,15.0,9.1,9.1,0.4,99.4,0.4,99.7,396.0,551.0,71.87,75.04,71.38,78.56,5.0,217.0,2.3,3.62,2.48,5.04,34.0,297.0,11.45,11.92,9.28,15.37,0.93,1037.0
AL,17170,CENTERWELL HOME HEALTH,1458 JONES DAIRY ROAD SUITE 100,JASPER,35501,Yes,Yes,Yes,Yes,Yes,Yes,4.5,99.8,75.3,100.0,100.0,96.8,91.8,90.2,15.7,12.2,12.2,0.8,98.9,2.8,99.5,270.0,374.0,72.19,78.78,73.34,83.41,2.0,149.0,1.34,3.44,2.36,5.01,35.0,244.0,14.34,12.32,9.45,15.87,1.1,1088.0
AL,17171,CENTERWELL HOME HEALTH,"1015 1ST STREET, SW, SUITE A",CULLMAN,35055,Yes,Yes,Yes,Yes,Yes,Yes,5.0,99.9,89.5,100.0,100.0,100.0,97.1,100.0,19.6,9.0,9.0,0.2,98.5,1.4,100.0,378.0,556.0,67.99,75.87,71.81,80.12,6.0,167.0,3.59,3.81,2.69,5.45,35.0,361.0,9.7,8.31,6.46,10.71,1.05,1490.0
AL,17175,ENHABIT HOME HEALTH,"919 SHARIT AVENUE, STE 213",GARDENDALE,35071,Yes,Yes,Yes,Yes,Yes,Yes,4.0,94.3,56.6,91.5,91.7,90.3,87.4,94.5,17.0,13.0,13.0,0.5,95.7,1.2,99.4,371.0,522.0,71.07,76.87,72.6,80.58,7.0,230.0,3.04,3.66,2.63,5.0,30.0,269.0,11.15,10.85,8.0,14.53,1.01,839.0
AL,17176,AVEANNA HOME HEALTH,1430 PARAMOUNT DRIVE,HUNTSVILLE,35806,Yes,Yes,Yes,Yes,Yes,Yes,3.0,96.7,71.7,80.0,83.9,83.1,80.1,78.2,11.6,9.8,9.8,0.3,96.9,0.8,93.6,550.0,840.0,65.48,71.28,67.93,75.1,20.0,270.0,7.41,4.92,3.76,6.61,40.0,437.0,9.15,8.46,6.63,10.95,0.93,2006.0
AL,17177,PREFERRED HOME HEALTH,1106 BRADSHAW DRIVE,FLORENCE,35630,Yes,Yes,Yes,Yes,Yes,Yes,4.0,98.9,73.7,91.1,95.0,88.8,88.2,88.4,18.4,11.7,11.7,0.7,100.0,1.7,93.2,284.0,458.0,62.01,70.74,65.81,75.45,9.0,148.0,6.08,4.19,2.97,5.82,31.0,302.0,10.26,8.75,6.81,11.47,0.97,1482.0
AL,17178,"PROHEALTH HOME HEALTH, LLC",4092 MEMORIAL PKWY SW STE 202,HUNTSVILLE,35802,Yes,Yes,Yes,Yes,Yes,Yes,3.5,99.3,86.0,87.8,85.7,85.3,87.4,81.8,11.7,7.8,7.8,0.5,99.7,0.6,100.0,327.0,449.0,72.83,79.73,74.62,83.61,4.0,143.0,2.8,3.68,2.48,5.19,30.0,319.0,9.4,8.88,6.56,12.06,0.99,1001.0
AL,17179,"PROHEALTH HOME HEALTH, LLC",25522 HIGHWAY 75 NORTH,ONEONTA,35121,Yes,Yes,Yes,Yes,Yes,Yes,3.0,97.3,83.0,79.1,81.4,80.8,89.5,79.9,11.3,10.7,10.7,0.2,99.6,1.0,99.9,551.0,774.0,71.19,76.19,72.82,79.28,13.0,288.0,4.51,4.27,3.11,5.92,29.0,446.0,6.5,6.84,5.01,9.12,0.98,1335.0
AL,17180,"PROHEALTH HOME HEALTH, LLC","101B VILLA DRIVE, SUITE 213",DAPHNE,36526,Yes,Yes,Yes,Yes,No,Yes,4.0,98.9,78.7,87.3,89.8,90.7,92.8,85.3,14.4,7.7,7.7,0.4,99.9,2.2,99.8,232.0,305.0,76.07,77.96,73.02,81.85,1.0,83.0,1.2,3.64,2.46,5.12,14.0,197.0,7.11,9.62,6.5,14.27,1.0,499.0
AL,17182,AVEANNA HOME HEALTH,71 JACKSON ST.,HARPERSVILLE,35078,Yes,Yes,Yes,Yes,Yes,Yes,3.0,93.9,79.0,78.0,80.9,84.2,83.9,83.1,14.3,8.7,8.7,0.2,99.3,0.9,99.4,389.0,526.0,73.95,80.56,76.81,83.96,8.0,298.0,2.68,3.54,2.55,4.96,20.0,250.0,8.0,8.48,5.82,11.82,1.04,957.0
AL,17300,AMEDISYS HOME HEALTH OF TUSCALOOSA,4116 WATERMELON ROAD,NORTHPORT,35473,Yes,Yes,Yes,Yes,Yes,Yes,4.0,99.9,75.0,90.7,89.5,91.1,88.4,87.6,16.6,9.5,9.5,0.0,98.9,0.7,99.0,1396.0,1920.0,72.71,79.3,77.3,81.19,38.0,775.0,4.9,4.36,3.47,5.61,127.0,1059.0,11.99,11.45,9.85,13.2,1.04,3730.0
AL,17305,AMEDISYS HOME HEALTH OF ANNISTON,"171 TOWN CENTER DR, SUITE MPS-4",ANNISTON,36205,Yes,Yes,Yes,Yes,Yes,Yes,4.5,99.8,61.0,89.7,91.4,92.8,89.8,87.9,15.2,10.0,10.0,0.1,96.0,0.6,96.7,3317.0,4325.0,76.69,82.64,81.28,84.14,39.0,1532.0,2.55,2.94,2.3,3.71,249.0,2429.0,10.25,10.15,9.06,11.17,1.02,7791.0
AL,17307,CENTERWELL HOME HEALTH,"5009 RIVER CHASE DRIVE, BLDG 100, SUITE D",PHENIX CITY,36867,Yes,Yes,Yes,Yes,Yes,Yes,3.5,100.0,78.8,85.1,82.4,84.2,90.6,80.6,15.3,11.7,11.7,0.4,98.7,2.2,99.7,338.0,460.0,73.48,76.7,72.52,80.81,3.0,164.0,1.83,3.52,2.37,4.87,32.0,241.0,13.28,14.03,10.36,18.81,0.94,923.0
AL,17319,AMEDISYS HOME HEALTH OF MONTGOMERY,"300 INTERSTATE PARK DRIVE, SUITE 324",MONTGOMERY,36109,Yes,Yes,Yes,Yes,Yes,Yes,4.5,99.7,79.5,91.6,93.2,92.6,96.9,89.6,15.8,8.5,8.5,0.5,99.5,0.9,96.2,983.0,1339.0,73.41,79.73,76.74,82.21,23.0,621.0,3.7,3.76,2.83,4.97,80.0,652.0,12.27,11.65,9.76,14.04,1.05,2151.0
AL,17320,AMEDISYS HOME HEALTH OF SELMA,108 EXECUTIVE PARK LANE,SELMA,36701,Yes,Yes,Yes,Yes,Yes,Yes,5.0,100.0,74.7,91.0,94.8,91.1,93.0,89.6,14.0,13.0,13.0,0.0,99.6,0.3,98.7,993.0,1365.0,72.75,80.94,78.38,83.35,17.0,522.0,3.26,3.31,2.5,4.29,66.0,661.0,9.98,9.2,7.62,11.31,0.93,2652.0
AL,17323,MONROE CO HOSP PROGRESSIVE HOM,DR WOODROW EDDINS MED DR-P.O. 886,MONROEVILLE,36461,Yes,Yes,Yes,Yes,Yes,Yes,1.5,90.6,42.3,68.9,74.3,68.7,63.2,61.4,22.2,12.1,12.1,0.3,70.7,1.1,91.1,113.0,193.0,58.55,62.73,55.45,69.37,0.0,65.0,0.0,3.61,2.4,5.03,18.0,126.0,14.29,13.78,9.47,19.44,0.98,751.0
AL,17324,ENHABIT HOME HEALTH,824 HIGHWAY 231 SOUTH,TROY,36081,Yes,Yes,Yes,Yes,Yes,Yes,3.5,98.2,63.1,83.8,84.5,85.8,84.4,85.4,13.6,12.4,12.4,0.6,98.4,0.6,98.5,1697.0,2316.0,73.27,79.5,77.73,81.36,28.0,1136.0,2.46,3.04,2.41,3.9,140.0,1239.0,11.3,10.78,9.41,12.58,1.03,4713.0
AL,17326,ENHABIT HOME HEALTH,"115 JOHNSTON STREET SE, SUITE 301A",DECATUR,35601,Yes,Yes,Yes,Yes,Yes,Yes,3.5,96.5,63.6,87.7,87.6,87.7,86.7,88.5,15.8,11.6,11.6,0.2,98.8,1.2,99.0,1667.0,2240.0,74.42,81.19,79.16,83.17,33.0,1066.0,3.1,3.46,2.69,4.52,158.0,1205.0,13.11,12.12,10.61,13.85,1.01,4703.0
AL,17327,AMEDISYS HOME HEALTH OF WALKER,"1301 HIGHWAY 78 E, SUITE E & D",JASPER,35501,Yes,Yes,Yes,Yes,Yes,Yes,5.0,100.0,57.7,92.4,96.0,94.2,93.1,86.6,14.1,7.3,7.3,0.2,98.2,1.2,99.4,249.0,322.0,77.33,82.49,77.99,86.89,4.0,176.0,2.27,3.56,2.57,5.18,21.0,186.0,11.29,11.32,8.17,15.77,1.05,516.0
AL,17328,AMEDISYS HOME HEALTH OF BREWTON,2554 DOUGLAS AVENUE,BREWTON,36426,Yes,Yes,Yes,Yes,No,Yes,5.0,100.0,82.4,91.3,94.7,98.1,93.1,92.9,15.0,12.4,12.4,0.0,99.0,0.4,99.6,288.0,377.0,76.39,80.35,75.99,84.67,3.0,103.0,2.91,3.76,2.67,5.27,18.0,186.0,9.68,10.41,7.44,14.99,1.03,817.0
AL,17831,GENEVA COUNTY HOME CARE,300 COUNTY ROAD 41,HARTFORD,36344,Yes,Yes,No,No,Yes,Yes,3.2422312786551197,94.09778357235986,71.06459926017263,78.76185241344453,79.96310174012447,81.67081019687026,79.42103969998708,75.8796644896914,13.867232669099073,11.63344092057255,11.63344092057255,0.3854331202206343,92.03302143787754,1.0009491042828331,97.7465119033519,470.7755026520291,515.5487200660612,71.59109411619588,76.5523794251881,69.80250894288885,82.4674762550882,14.321452702702702,249.1084323712507,3.9466250000000005,3.912418918918919,2.808114864864865,5.427471283783784,34.988546018056866,279.508198478191,10.245278264384853,10.24390782913354,7.124472443066972,14.673847190405604,0.9690223239839725,870.149787938347
AL,17878,COMFORT CARE HOME HEALTH OF NORTHEAST ALABAMA,201 S. 1ST STREET,GADSDEN,35901,Yes,Yes,Yes,Yes,Yes,No,4.0,99.3,63.2,93.2,91.2,90.7,89.2,85.9,15.0,11.2,11.2,0.5,99.1,0.5,95.4,172.0,230.0,74.78,81.9,75.09,87.51,6.0,93.0,6.45,4.27,2.99,6.07,9.0,121.0,7.44,8.59,5.36,12.72,1.01,642.0
AL,17879,COMFORT CARE HOME HEALTH,1306 NORTH WASHINGTON STREET,LIVINGSTON,35470,Yes,Yes,Yes,Yes,Yes,Yes,3.0,99.7,59.6,73.8,87.2,77.6,80.2,75.7,8.5,3.7,3.7,0.8,99.0,1.0,99.3,147.0,203.0,72.41,79.08,72.58,85.34,8.0,79.0,10.13,4.59,3.29,6.28,10.0,113.0,8.85,9.67,6.32,14.85,0.93,596.0
AL,17880,PREFERRED HOME HEALTH,44 HUGHES RD STE 2400,MADISON,35758,-,-,-,-,-,-,3.2422312786551197,94.09778357235986,71.06459926017263,78.76185241344453,79.96310174012447,81.67081019687026,79.42103969998708,75.8796644896914,13.867232669099073,11.63344092057255,11.63344092057255,0.3854331202206343,92.03302143787754,1.0009491042828331,97.7465119033519,470.7755026520291,515.5487200660612,71.59109411619588,76.5523794251881,69.80250894288885,82.4674762550882,14.321452702702702,249.1084323712507,3.9466250000000005,3.912418918918919,2.808114864864865,5.427471283783784,34.988546018056866,279.508198478191,10.245278264384853,10.24390782913354,7.124472443066972,14.673847190405604,0.9690223239839725,870.149787938347
AR,47001,COMMONSPIRIT HEALTH,1100 N UNIVERSITY AVE STE 230,LITTLE ROCK,72207,Yes,Yes,Yes,Yes,No,Yes,4.0,98.2,73.8,87.4,89.3,90.2,89.2,82.5,14.6,13.6,13.6,0.8,95.5,0.8,94.3,432.0,584.0,73.97,80.26,76.51,83.59,10.0,283.0,3.53,3.78,2.73,5.36,34.0,254.0,13.39,12.1,9.32,16.07,1.05,911.0
AR,47004,AR METH MED CTR HH,900 WEST KINGSHIGHWAY,PARAGOULD,72451,Yes,Yes,No,Yes,Yes,Yes,3.5,99.8,69.8,85.5,86.5,91.5,81.3,78.1,17.6,11.3,11.3,0.0,99.8,1.3,100.0,319.0,404.0,78.96,84.61,80.49,88.55,11.0,228.0,4.82,4.04,2.86,5.52,21.0,227.0,9.25,8.56,6.05,11.73,1.17,634.0
AR,47006,CHI ST VINCENT HOT SPRINGS HEALTH AT HOME,220 MCAULEY COURT,HOT SPRINGS NATIONAL,71913,Yes,Yes,Yes,Yes,Yes,Yes,4.0,99.0,90.6,87.5,89.1,91.0,89.9,82.6,14.5,8.5,8.5,0.2,99.3,0.5,100.0,693.0,924.0,75.0,79.21,76.43,82.04,25.0,535.0,4.67,4.29,3.28,5.51,77.0,495.0,15.56,14.45,11.83,17.38,1.06,1454.0
AR,47009,SPARKS HEALTH SYSTEM HOME HEALTH,"4300 ROGERS AVENUE, SUITE 34 & 35",FORT SMITH,72903,Yes,Yes,Yes,Yes,No,Yes,4.5,98.5,63.6,90.6,91.3,94.6,92.8,85.9,9.3,9.9,9.9,0.0,92.7,1.9,100.0,318.0,404.0,78.71,88.35,83.59,92.57,6.0,171.0,3.51,3.59,2.55,5.28,25.0,162.0,15.43,12.91,9.55,17.37,1.04,623.0
AR,47010,AMEDISYS HOME HEALTH CARE OF ARKANSAS,"2700 BRYAN ROAD, SUITE A",VAN BUREN,72956,Yes,Yes,Yes,Yes,No,Yes,5.0,99.7,80.2,90.8,92.6,94.0,91.8,88.4,9.4,11.5,11.5,0.4,99.0,1.3,99.9,679.0,939.0,72.31,80.86,77.72,83.8,25.0,415.0,6.02,4.64,3.31,6.15,52.0,540.0,9.63,8.57,6.83,10.78,1.09,1642.0
AR,47011,MERCY HOME HEALTH,3300 SOUTH 70TH,FORT SMITH,72903,Yes,Yes,Yes,No,Yes,Yes,3.5,99.7,66.5,84.2,86.0,90.7,88.3,77.5,14.4,9.8,9.8,0.4,93.2,0.6,100.0,557.0,628.0,88.69,89.57,86.87,91.85,14.0,354.0,3.95,4.18,3.13,5.78,30.0,318.0,9.43,11.12,8.35,14.7,0.87,756.0
AR,47016,BAXTER COUNTY HOME HEALTH,30 RYAN ROAD,COTTER,72626,Yes,Yes,Yes,Yes,Yes,Yes,3.0,97.4,67.1,81.9,86.9,85.6,76.2,76.9,15.0,13.2,13.2,0.5,93.4,0.3,97.7,754.0,980.0,76.94,81.53,78.92,84.03,17.0,564.0,3.01,3.78,2.8,4.94,51.0,458.0,11.14,11.75,9.21,14.82,0.97,1336.0
AR,47020,NORTHWEST HOME HEALTH,"2921 OLD MISSOURI ROAD, SUITE 1 & 2",SPRINGDALE,72764,Yes,Yes,Yes,Yes,Yes,Yes,4.0,99.4,75.8,86.3,85.9,90.3,87.7,85.0,12.4,11.6,11.6,0.2,98.8,0.5,100.0,844.0,1046.0,80.69,87.2,84.82,89.61,13.0,455.0,2.86,3.39,2.5,4.61,56.0,555.0,10.09,10.12,8.03,12.33,1.02,1656.0
AR,47021,SOUTH ARKANSAS HOME HEALTH,431 WEST OAK,EL DORADO,71730,Yes,Yes,Yes,Yes,No,Yes,4.0,99.6,75.8,88.4,87.9,90.7,89.3,83.4,14.6,13.6,13.6,0.0,99.6,0.8,100.0,554.0,676.0,81.95,89.71,86.44,92.53,14.0,312.0,4.49,4.16,3.04,5.62,40.0,349.0,11.46,11.21,8.48,14.39,1.0,945.0
AR,47024,SPRING RIVER HOME HEALTH AGENCY,121 SOUTH PICKREN,SALEM,72576,Yes,Yes,Yes,Yes,No,Yes,3.0,99.7,83.3,82.4,84.0,85.2,80.7,75.2,13.0,12.0,12.0,0.4,97.6,1.7,99.4,325.0,446.0,72.87,75.1,70.76,78.88,1.0,160.0,0.63,3.41,2.3,4.83,44.0,261.0,16.86,16.26,12.5,20.5,1.01,1230.0
AR,47025,DOCTORS HOME CARE,726 CALIFORNIA AVENUE SW,CAMDEN,71701,Yes,Yes,Yes,Yes,Yes,Yes,3.5,55.1,63.8,87.1,85.6,93.0,92.0,76.4,12.7,18.9,18.9,1.4,79.0,0.9,98.2,170.0,217.0,78.34,84.91,78.88,89.79,1.0,85.0,1.18,3.55,2.51,4.93,7.0,126.0,5.56,7.33,4.71,11.22,1.11,358.0
AR,47028,ELITE HOME HEALTH,650 S SHACKLEFORD STE 303,LITTLE ROCK,72211,Yes,Yes,Yes,Yes,Yes,Yes,4.5,99.3,76.1,92.9,92.2,93.6,93.5,88.8,14.3,13.2,13.2,0.3,98.3,0.5,99.8,1777.0,2265.0,78.45,84.58,82.63,86.17,30.0,1143.0,2.62,3.36,2.62,4.15,127.0,1151.0,11.03,10.27,8.86,11.9,1.05,3257.0
AR,47029,CENTERWELL HOME HEALTH,"10825 FINANCIAL CENTRE PARKWAY, SUITE 210",LITTLE ROCK,72211,Yes,Yes,Yes,Yes,Yes,Yes,4.5,99.9,74.8,90.2,89.2,92.8,93.8,89.0,17.0,11.1,11.1,0.2,99.8,1.0,99.9,782.0,1020.0,76.67,85.27,82.05,88.03,12.0,399.0,3.01,3.58,2.69,4.99,71.0,600.0,11.83,10.63,8.57,12.75,1.08,1725.0
AR,47030,AREA AGENCY ON AGING OF SE AR INC,709 EAST 8TH AVENUE,PINE BLUFF,71601,Yes,Yes,No,No,No,Yes,3.2422312786551197,100.0,71.06459926017263,78.76185241344453,79.96310174012447,81.67081019687026,79.42103969998708,75.8796644896914,13.867232669099073,11.63344092057255,11.63344092057255,0.3854331202206343,68.0,0.0,96.0,13.0,23.0,56.52,68.4,47.86,86.51,14.321452702702702,9.0,3.9466250000000005,3.912418918918919,2.808114864864865,5.427471283783784,34.988546018056866,11.0,10.245278264384853,10.24390782913354,7.124472443066972,14.673847190405604,1.38,38.0
AR,47031,PIGGOTT COMMUNITY HOSPITAL HOME HEALTH,216 EAST MAIN STREET,PIGGOTT,72454,Yes,Yes,Yes,No,No,Yes,2.0,96.0,64.7,66.9,80.8,74.6,57.3,73.4,18.9,15.6,15.6,1.4,97.2,2.8,100.0,207.0,288.0,71.88,77.87,72.37,83.27,6.0,155.0,3.87,3.78,2.62,5.37,27.0,167.0,16.17,15.0,11.03,20.43,1.33,933.0
AR,47032,TRINITY RIVER VALLEY HOME HEALTH,1708 WEST C PLACE,RUSSELLVILLE,72801,Yes,Yes,Yes,Yes,Yes,Yes,3.0,98.4,76.8,84.1,80.2,85.8,82.2,81.8,16.0,11.1,11.1,0.3,96.9,1.6,99.5,306.0,425.0,72.0,81.18,76.63,85.65,2.0,177.0,1.13,3.28,2.33,4.63,39.0,260.0,15.0,12.03,9.13,15.43,1.15,907.0
AR,47033,ST BERNARDS HOME CARE,1726 MARIE CIRCLE,JONESBORO,72401,Yes,Yes,Yes,Yes,Yes,Yes,3.0,96.6,63.0,83.6,86.3,85.6,85.8,77.7,17.4,12.0,12.0,0.2,94.3,0.8,99.2,1038.0,1408.0,73.72,80.81,78.65,83.34,38.0,683.0,5.56,4.45,3.56,5.66,105.0,676.0,15.53,13.06,11.06,15.22,1.11,1842.0
AR,47034,"AREA AGENCY ON AGING OF WESTERN ARKANSAS, INC.",3600 WHEELER AVE STE 2,FORT SMITH,72901,Yes,Yes,No,Yes,No,Yes,3.5,91.7,51.3,86.4,89.7,95.7,83.7,81.5,13.867232669099073,11.63344092057255,11.63344092057255,0.0,95.9,2.0,100.0,52.0,66.0,78.79,81.31,71.43,89.78,0.0,35.0,0.0,3.64,2.49,5.06,5.0,28.0,17.86,12.77,7.92,21.2,0.92,121.0
AR,47035,UNITY HEALTH HOME HOMECARE,3109 EAST MOORE AVENUE,SEARCY,72143,Yes,Yes,Yes,Yes,Yes,Yes,4.5,99.7,58.3,90.6,88.4,92.5,95.1,85.4,14.4,10.1,10.1,0.2,98.8,1.0,99.5,829.0,1052.0,78.8,86.04,83.11,88.45,34.0,659.0,5.16,4.6,3.52,5.99,80.0,597.0,13.4,11.4,9.37,13.76,1.08,1502.0
AR,47038,KINDRED AT HOME 1,"2120 SOUTH WALDRON ROAD, BUILDING C",FORT SMITH,72903,Yes,Yes,Yes,Yes,No,Yes,4.5,99.7,89.2,91.1,85.7,91.4,94.0,86.7,14.3,13.7,13.7,0.1,86.7,0.9,99.7,746.0,1024.0,72.85,79.75,76.88,82.76,7.0,285.0,2.46,3.39,2.52,4.61,51.0,542.0,9.41,8.99,7.16,11.16,1.05,1937.0
AR,47043,SALINE MEMORIAL HOME HEALTH,"4000 HWY 5, SUITE 4",BRYANT,72022,Yes,Yes,Yes,Yes,Yes,Yes,4.5,99.7,64.9,91.4,93.0,93.6,94.3,89.1,18.5,11.8,11.8,0.6,99.1,0.5,100.0,520.0,651.0,79.88,86.82,83.37,89.99,14.0,446.0,3.14,3.75,2.77,4.94,66.0,383.0,17.23,13.84,11.35,16.82,1.12,956.0
AR,47044,nan,2710 PHILLIPS DRIVE,JONESBORO,72401,Yes,Yes,No,No,No,Yes,2.5,79.0,82.5,67.3,85.4,84.9,71.9,60.1,13.0,7.3,7.3,0.0,97.6,2.8,99.6,250.0,355.0,70.42,75.88,71.25,80.25,8.0,143.0,5.59,4.2,3.0,5.72,31.0,183.0,16.94,14.84,10.96,19.44,1.1,698.0
AR,47046,ELITE HOME HEALTH,130 PARTEE ROAD,CALICO ROCK,72519,Yes,Yes,Yes,Yes,Yes,Yes,4.5,100.0,79.7,90.3,91.9,96.7,88.9,88.8,15.6,13.3,13.3,0.3,99.6,2.0,100.0,250.0,339.0,73.75,82.23,77.02,86.87,0.0,117.0,0.0,3.3,2.24,4.79,33.0,196.0,16.84,13.78,10.26,18.37,1.1,810.0
AR,47048,CROSSRIDGE COMM HOSPITAL HOME HEALTH,732 EAST ELDRIDGE AVENUE,WYNNE,72396,Yes,Yes,Yes,Yes,Yes,Yes,1.5,88.0,67.6,56.9,62.8,54.4,75.9,62.3,24.8,14.1,14.1,0.0,83.3,3.4,99.6,80.0,156.0,51.28,55.09,47.15,63.15,3.0,63.0,4.76,4.02,2.79,5.74,22.0,83.0,26.51,18.2,13.06,25.19,1.05,481.0
AR,47052,UNITY HEALTH HOMECARE,"2000 MCLAIN STREET, SUITE 1",NEWPORT,72112,Yes,Yes,Yes,Yes,Yes,Yes,4.5,98.9,80.6,92.7,91.2,95.7,97.2,91.3,18.1,10.1,10.1,0.4,99.5,1.8,100.0,272.0,334.0,81.44,88.3,84.09,92.25,2.0,156.0,1.28,3.37,2.4,4.86,36.0,178.0,20.22,15.64,11.89,20.56,0.95,739.0
AR,47056,AMEDISYS HOME HEALTH,307 WEST STILLWELL AVENUE,DE QUEEN,71832,Yes,Yes,Yes,Yes,No,Yes,4.5,98.7,68.6,95.5,97.4,98.4,89.7,85.5,13.0,16.7,16.7,0.6,99.2,0.0,99.7,222.0,296.0,75.0,80.36,75.11,85.39,3.0,115.0,2.61,3.73,2.64,5.39,28.0,164.0,17.07,14.07,10.24,18.97,1.02,642.0
AR,47057,UNIVERSITY OF ARKANSAS FOR MEDICAL SCIENCES HOME HEALTH AN AMEDISYS PARTNER,404 LLAMA DRIVE,SEARCY,72143,Yes,Yes,Yes,Yes,Yes,Yes,4.5,99.9,68.3,92.6,93.7,96.1,96.2,86.7,16.8,9.8,9.8,0.2,97.8,0.8,98.1,537.0,802.0,66.96,73.99,70.71,77.69,12.0,340.0,3.53,3.67,2.66,4.93,80.0,456.0,17.54,15.3,13.0,18.55,1.16,1301.0
AR,47070,INTREPID USA HEALTHCARE SERVICES,"300 SOUTH RODNEY PARHAM, SUITE 14",LITTLE ROCK,72205,Yes,Yes,Yes,Yes,Yes,Yes,4.0,99.8,89.7,79.0,86.2,93.4,88.2,86.6,14.2,16.7,16.7,0.6,98.0,1.0,92.6,810.0,1119.0,72.39,77.18,73.85,79.99,12.0,282.0,4.26,4.18,3.02,5.71,60.0,637.0,9.42,10.15,8.06,12.93,1.12,1619.0
AR,47080,AMEDISYS HOME HEALTH,2236 HARRISON STREET,BATESVILLE,72501,Yes,Yes,Yes,No,No,Yes,4.5,99.9,73.9,91.0,89.1,91.0,90.6,85.7,14.2,14.2,14.2,0.1,98.2,1.2,98.7,902.0,1211.0,74.48,83.69,81.25,86.28,9.0,528.0,1.7,2.85,2.06,3.96,92.0,652.0,14.11,11.57,9.58,13.71,1.1,2475.0
AR,47081,MAGNOLIA  HOME HEALTH AGENCY,103 HOSPITAL DRIVE,MAGNOLIA,71753,Yes,Yes,No,No,No,Yes,2.5,91.4,60.3,68.4,86.5,70.5,71.7,69.4,12.5,12.5,12.5,0.0,54.8,2.4,100.0,212.0,277.0,76.53,79.97,74.97,84.91,5.0,121.0,4.13,4.03,2.75,5.9,19.0,145.0,13.1,13.12,8.94,18.46,1.03,722.0
AR,47082,DREW MEMORIAL HOSPITAL HOME HEALTH AGENCY,778 SCOGIN DRIVE,MONTICELLO,71655,Yes,Yes,Yes,Yes,No,Yes,2.0,90.6,81.6,71.0,72.5,74.9,65.5,66.3,15.4,11.2,11.2,0.0,92.9,0.3,98.3,156.0,335.0,46.57,53.32,47.54,59.08,1.0,105.0,0.95,3.57,2.53,5.15,37.0,202.0,18.32,13.48,10.57,17.07,1.11,728.0
AR,47083,CONWAY REGIONAL HOMECARE SVCS,2843 PRINCE STREET,CONWAY,72034,Yes,Yes,Yes,Yes,Yes,Yes,4.0,99.3,80.9,87.7,86.0,88.7,88.7,87.0,13.6,15.5,15.5,0.0,99.6,2.0,100.0,472.0,578.0,81.66,86.52,83.12,89.68,12.0,309.0,3.88,3.98,3.01,5.63,33.0,319.0,10.34,10.35,7.9,13.64,1.14,847.0
AR,47087,HOME HEALTH AGENCY OF  N AR REGIONAL MED CENTER,501 E SHERMAN,HARRISON,72601,Yes,Yes,Yes,Yes,Yes,Yes,2.5,96.2,59.2,76.9,80.3,81.3,74.3,74.1,11.3,15.5,15.5,0.0,96.6,1.5,99.6,384.0,443.0,86.68,87.79,84.51,90.68,2.0,190.0,1.05,3.34,2.35,4.95,17.0,233.0,7.3,8.8,5.96,12.35,0.86,712.0
AR,47088,INTREPID USA HEALTHCARE SERVICES,"109 9TH STREET, BUILDING 1",MCCRORY,72101,Yes,Yes,Yes,Yes,Yes,Yes,4.0,100.0,83.8,91.1,90.5,92.8,84.5,85.2,15.0,18.4,18.4,0.8,100.0,0.0,96.1,78.0,103.0,75.73,81.02,72.08,88.44,1.0,47.0,2.13,3.78,2.53,5.81,9.0,52.0,17.31,13.22,7.57,20.7,0.98,335.0
AR,47090,BAPTIST HEALTH HOME HEALTH-LR,"11900 COLONEL GLENN ROAD, SUITE 2000",LITTLE ROCK,72210,Yes,Yes,Yes,Yes,Yes,Yes,3.0,98.6,76.5,79.7,83.7,83.3,75.0,75.6,15.1,11.1,11.1,0.2,90.5,0.9,99.3,1882.0,2405.0,78.25,84.39,82.68,86.17,97.0,1681.0,5.77,5.27,4.31,6.29,110.0,1194.0,9.21,8.68,7.29,10.16,1.0,3153.0
AR,47093,JEFFERSON HOMECARE,232 FRANKIE LANE,WHITE HALL,71602,Yes,Yes,Yes,Yes,Yes,Yes,5.0,99.6,89.1,94.9,93.0,97.5,97.8,92.8,15.4,12.4,12.4,0.0,98.3,0.5,99.9,1177.0,1531.0,76.88,85.65,83.11,87.91,30.0,772.0,3.89,3.76,2.81,4.81,102.0,715.0,14.27,12.27,10.4,14.77,1.07,2392.0
AR,47096,JOHN ED CHAMBERS MEMORIAL INC HHA,HIGHWAY 10 AT DETROIT STREET,DANVILLE,72833,Yes,Yes,Yes,Yes,Yes,Yes,1.5,79.4,50.5,61.8,64.9,68.8,61.8,65.8,25.4,7.1,7.1,0.0,92.7,3.1,93.4,92.0,171.0,53.8,59.96,52.13,66.78,5.0,79.0,6.33,4.19,2.98,6.14,26.0,99.0,26.26,18.77,13.92,25.43,1.11,726.0
AR,47097,BAPTIST HEALTH HOME HEALTH - HEBER SPRINGS,1709 WEST MAIN,HEBER SPRINGS,72543,Yes,Yes,Yes,Yes,Yes,Yes,3.5,99.8,86.3,84.1,95.5,85.4,82.0,76.6,15.9,11.7,11.7,0.0,89.2,1.7,100.0,391.0,462.0,84.63,87.13,83.21,90.11,3.0,251.0,1.2,3.26,2.29,4.4,16.0,237.0,6.75,8.64,6.0,11.85,1.03,615.0
AR,47099,CHI ST VINCENT HEALTH AT HOME,211 HELICOPTER LANE,MORRILTON,72110,Yes,Yes,Yes,Yes,Yes,Yes,4.0,97.2,65.5,90.1,90.5,90.7,97.9,85.4,15.0,18.0,18.0,0.3,97.6,0.6,97.9,362.0,471.0,76.86,83.78,79.61,87.62,8.0,266.0,3.01,3.67,2.64,5.02,45.0,245.0,18.37,14.08,11.1,17.84,1.0,786.0
AR,47102,WASHINGTON REGIONAL HOME HEALTH,2683 N QUALITY LANE,FAYETTEVILLE,72703,Yes,Yes,Yes,Yes,Yes,Yes,3.0,98.3,74.1,77.8,78.4,85.8,81.5,73.9,8.0,9.4,9.4,1.4,99.2,0.8,99.7,401.0,467.0,85.87,89.1,85.81,91.91,7.0,235.0,2.98,3.57,2.64,4.98,15.0,205.0,7.32,8.73,6.08,12.46,0.94,697.0
AR,47104,CHICOT MEMORIAL MEDICAL CENTER HOME HEALTH AGENC,2729 HIGHWAY 65 AND 82 SOUTH,LAKE VILLAGE,71653,Yes,Yes,Yes,Yes,No,Yes,3.0,100.0,69.4,76.9,84.3,78.6,70.1,68.7,12.2,16.1,16.1,0.4,100.0,1.4,99.7,161.0,225.0,71.56,76.66,70.26,82.34,0.0,89.0,0.0,3.41,2.38,5.0,14.0,133.0,10.53,11.15,7.63,15.62,1.25,386.0
AR,47105,KINDRED AT HOME 1,"4328 CENTRAL AVENUE, SUITE E",HOT SPRINGS,71913,Yes,Yes,Yes,Yes,Yes,Yes,4.0,99.6,72.4,86.2,90.0,90.5,89.1,86.4,15.9,10.6,10.6,0.4,90.3,1.8,99.2,739.0,972.0,76.03,81.21,78.24,83.86,13.0,352.0,3.69,3.9,2.77,5.37,55.0,576.0,9.55,9.46,7.57,11.77,1.07,1590.0
AR,47108,AMEDISYS HOME HEALTH OF MOUNTAIN VIEW,1103 E. MAINSTREET STE C,MOUNTAIN VIEW,72560,Yes,Yes,Yes,Yes,Yes,Yes,5.0,100.0,75.8,93.2,94.1,93.7,92.6,89.1,13.3,14.9,14.9,0.0,99.9,0.3,99.2,569.0,745.0,76.38,84.03,80.5,87.15,8.0,278.0,2.88,3.53,2.51,4.89,52.0,361.0,14.4,12.61,9.8,15.59,1.1,1442.0
AR,47109,ACMC FAMILY HOME HEALTH,211 PINE STREET,CROSSETT,71635,Yes,Yes,Yes,Yes,Yes,Yes,4.0,99.7,64.2,86.5,90.1,94.1,85.3,89.0,15.2,10.3,10.3,1.7,95.6,3.4,100.0,300.0,404.0,74.26,80.44,75.27,84.45,0.0,138.0,0.0,3.24,2.21,4.53,29.0,235.0,12.34,11.69,8.58,15.71,1.04,809.0
AR,47114,ELARA CARING,4102 JEFFERSON AVENUE,TEXARKANA,71854,Yes,Yes,Yes,Yes,Yes,Yes,4.0,98.0,60.0,89.0,86.0,88.6,86.0,100.0,13.867232669099073,11.63344092057255,11.63344092057255,0.0,100.0,0.0,100.0,33.0,43.0,76.74,81.67,68.37,91.49,14.321452702702702,16.0,3.9466250000000005,3.912418918918919,2.808114864864865,5.427471283783784,1.0,22.0,4.55,9.12,4.96,16.71,0.87,244.0
AR,47115,ELITE HOME HEALTH,"110 HIGHWAY 62 W, STE 1",SALEM,72576,Yes,Yes,Yes,Yes,Yes,Yes,4.5,99.4,70.5,91.6,91.5,95.2,92.0,87.5,16.0,11.2,11.2,0.3,98.8,0.7,99.6,1007.0,1286.0,78.3,84.11,81.5,86.49,15.0,449.0,3.34,3.69,2.76,5.0,97.0,754.0,12.86,12.87,10.85,15.11,1.03,2336.0
AR,47116,HOME HEALTH PROFESSIONALS INC,509 HUTSON STREET,BLYTHEVILLE,72316,Yes,Yes,Yes,Yes,Yes,Yes,3.5,81.9,60.3,92.9,97.8,86.9,83.4,95.3,20.4,13.8,13.8,0.0,93.8,1.1,99.4,86.0,144.0,59.72,68.04,60.03,76.12,0.0,56.0,0.0,3.54,2.42,5.36,6.0,68.0,8.82,8.53,5.22,13.28,1.06,284.0
AR,47117,"STAT HOME HEALTH - CENARK, LLC",1400 BRADEN STREET,JACKSONVILLE,72076,Yes,Yes,Yes,No,Yes,No,2.5,92.0,80.3,77.7,75.0,81.7,84.4,74.0,17.5,11.9,11.9,0.3,96.4,0.4,99.9,717.0,1023.0,70.09,76.04,73.13,78.71,16.0,325.0,4.92,4.19,3.13,5.61,83.0,592.0,14.02,13.46,11.07,16.33,1.03,1954.0
AR,47118,APPROVE HOME MEDICAL SERVICES,2000 EAST HARRISON ST SUITE E,BATESVILLE,72501,Yes,Yes,Yes,Yes,Yes,Yes,3.0,98.7,78.3,82.6,81.1,82.1,83.8,78.7,15.7,8.5,8.5,0.0,96.9,1.3,100.0,141.0,263.0,53.61,57.09,50.87,63.34,0.0,77.0,0.0,3.49,2.39,4.85,25.0,160.0,15.63,14.77,10.35,20.03,0.92,845.0
AR,47122,ELITE HOME HEALTH,1227 STATE HWY 77 SUITE E 2,MARION,72364,Yes,Yes,Yes,Yes,Yes,Yes,4.5,99.6,63.3,93.3,89.1,89.7,91.1,89.7,15.5,9.6,9.6,0.2,97.4,0.6,100.0,490.0,596.0,82.21,94.04,90.19,97.39,12.0,317.0,3.79,3.54,2.56,4.81,51.0,320.0,15.94,11.75,9.45,14.54,1.04,1228.0
AR,47127,DELTA MEMORIAL HOSPITAL HHA,1020 HWY 165 SOUTH,DUMAS,71639,Yes,Yes,No,No,No,Yes,3.0,93.7,63.1,89.8,84.8,88.6,80.5,81.3,16.9,14.5,14.5,0.6,73.6,0.3,100.0,135.0,198.0,68.18,72.35,66.03,78.98,5.0,88.0,5.68,4.09,2.84,5.7,14.0,107.0,13.08,13.16,8.55,19.17,1.06,308.0
AR,47128,ELITE HOME HEALTH,"4200 N WASHINGTON STREET, SUITE 1",FORREST CITY,72335,Yes,Yes,Yes,Yes,No,No,4.5,99.2,56.3,95.6,90.4,92.1,90.3,88.8,12.5,16.8,16.8,0.3,99.4,0.9,99.8,477.0,597.0,79.9,89.96,86.22,93.22,13.0,272.0,4.78,3.92,2.92,5.08,39.0,316.0,12.34,9.9,7.6,12.71,1.03,991.0
AR,47133,ELITE HOME HEALTH,605 MAGNOLIA AVENUE,MENA,71953,Yes,Yes,Yes,Yes,Yes,Yes,5.0,100.0,70.3,97.3,96.8,100.0,90.7,95.4,13.2,13.4,13.4,0.3,99.5,1.7,99.9,632.0,780.0,81.03,85.4,82.38,88.2,6.0,241.0,2.49,3.58,2.55,4.97,57.0,466.0,12.23,12.75,10.21,15.59,1.07,2041.0
AR,47134,ELITE HOME HEALTH,"146 PASSION PLAY ROAD, SUITE B",EUREKA SPRINGS,72632,Yes,Yes,Yes,No,Yes,Yes,4.5,99.2,67.0,89.6,89.9,93.7,94.1,85.8,10.6,19.1,19.1,0.6,97.2,0.3,99.7,505.0,626.0,80.67,87.92,84.05,91.12,13.0,288.0,4.51,4.09,2.95,5.42,30.0,344.0,8.72,8.96,6.86,11.55,0.94,1032.0
AR,47135,HOME HEALTH PROFESSIONALS & HOSPICE,2222 SPENCE CIRCLE,JONESBORO,72401,Yes,Yes,Yes,Yes,Yes,Yes,4.0,83.0,54.1,96.4,99.8,95.3,75.8,99.3,19.8,6.4,6.4,0.0,98.4,2.1,100.0,63.0,129.0,48.84,55.34,46.47,63.59,0.0,32.0,0.0,3.75,2.61,5.55,13.0,51.0,25.49,14.28,9.67,20.82,1.19,462.0
AR,47138,ELITE HOME HEALTH,614 S MAIN ST STE 2,NASHVILLE,71852,Yes,Yes,Yes,Yes,Yes,Yes,4.5,99.0,63.7,91.8,92.2,96.0,90.7,89.6,14.2,14.4,14.4,0.1,99.3,1.0,99.9,1283.0,1645.0,77.99,82.98,80.52,85.17,17.0,687.0,2.47,3.14,2.41,4.12,110.0,891.0,12.35,12.55,10.61,14.65,1.0,3498.0
AR,47139,LITTLE RIVER MEMORIAL HOSPITAL HOME HEALTH,170 SOUTH 4TH STREET,ASHDOWN,71822,Yes,Yes,Yes,Yes,Yes,Yes,2.0,88.9,57.0,55.1,75.2,80.8,62.0,63.7,16.7,11.7,11.7,0.4,99.5,3.0,100.0,303.0,371.0,81.67,84.04,79.21,87.67,8.0,170.0,4.71,4.17,2.84,5.9,22.0,214.0,10.28,11.26,8.32,15.39,1.07,956.0
AR,47140,BRADLEY COUNTY MEDICAL CENTER HOME HEALTH AGENCY,204 BRAGG STREET,WARREN,71671,Yes,Yes,Yes,Yes,No,Yes,2.5,100.0,70.1,65.4,69.7,68.9,48.5,68.7,12.5,17.2,17.2,0.7,98.9,0.9,97.2,206.0,316.0,65.19,70.49,64.65,75.78,1.0,115.0,0.87,3.44,2.47,4.96,40.0,173.0,23.12,19.69,15.45,25.23,1.09,1421.0
AR,47145,ELITE HOME HEALTH,"3024 RED WOLF BLVD, SUITE 6",JONESBORO,72401,Yes,Yes,Yes,Yes,Yes,Yes,4.5,99.6,60.2,93.6,91.4,97.0,93.0,91.2,14.4,11.0,11.0,0.0,98.9,1.4,99.9,729.0,946.0,77.06,87.31,84.12,90.14,20.0,533.0,3.75,3.63,2.84,4.92,66.0,502.0,13.15,10.92,8.71,13.39,1.14,1510.0
AR,47147,TRINITY CENTRAL HOME HEALTH,835 CENTRAL AVE STE 511,HOT SPRINGS,71901,Yes,Yes,Yes,Yes,Yes,Yes,4.0,99.7,66.3,93.0,89.6,94.5,83.7,84.1,17.9,11.1,11.1,0.5,97.6,2.1,99.3,159.0,239.0,66.53,72.41,65.56,77.99,1.0,67.0,1.49,3.72,2.44,5.34,31.0,150.0,20.67,17.71,13.0,23.47,0.99,625.0
AR,47148,FIVE RIVERS MEDICAL CENTER HOME HEALTH,432 COUNTRY CLUB ROAD,POCAHONTAS,72455,Yes,Yes,Yes,Yes,No,Yes,2.0,95.5,69.4,79.5,80.4,75.6,56.8,70.9,19.6,10.3,10.3,0.3,98.0,2.9,100.0,292.0,422.0,69.19,74.21,69.42,78.3,4.0,173.0,2.31,3.56,2.46,4.94,37.0,236.0,15.68,14.97,11.12,19.65,1.07,1182.0
AR,47149,MERCY HOME HEALTH,"1200 WEST WALNUT STREET, SUITE 1800",ROGERS,72756,Yes,Yes,Yes,Yes,Yes,Yes,2.5,82.9,71.7,77.4,81.4,80.2,78.5,67.4,13.9,12.8,12.8,0.4,79.3,1.6,99.8,1314.0,1585.0,82.9,87.95,85.87,89.88,40.0,881.0,4.54,4.39,3.35,5.59,69.0,835.0,8.26,9.05,7.29,11.41,1.01,2180.0
AR,47151,ELITE HOME HEALTH,"835 CENTRAL AVENUE, SUITE 301",HOT SPRINGS,71901,Yes,Yes,Yes,Yes,Yes,Yes,4.5,98.7,78.3,89.7,89.7,93.7,92.6,88.8,12.9,12.4,12.4,0.4,97.9,0.7,99.9,1487.0,1904.0,78.1,84.7,82.67,86.57,34.0,951.0,3.58,3.81,2.96,4.78,123.0,1045.0,11.77,11.28,9.78,13.02,1.1,2800.0
AR,47153,JOHNSON REGIONAL HOMECARE,1100 EAST POPLAR STREET,CLARKSVILLE,72830,Yes,Yes,Yes,Yes,No,Yes,4.0,99.5,78.0,83.8,83.3,91.2,95.6,85.9,10.5,11.5,11.5,0.6,99.0,1.0,100.0,134.0,159.0,84.28,85.29,78.44,90.27,1.0,93.0,1.08,3.59,2.54,5.08,8.0,86.0,9.3,11.05,6.36,17.78,0.95,207.0
AR,47156,AREA AGENCY ON AGING OF WESTERN ARKANSAS INC,333 SOUTH FIRST STREET,PARIS,72855,Yes,Yes,Yes,Yes,Yes,Yes,2.5,93.1,46.2,76.6,82.0,86.8,68.8,76.8,24.4,4.5,4.5,0.0,97.7,3.6,100.0,72.0,92.0,78.26,84.43,75.1,91.63,1.0,44.0,2.27,3.77,2.47,5.42,5.0,40.0,12.5,11.07,6.22,19.46,1.01,206.0
AR,47158,"AREA AGENCY ON AGING OF WESTERN ARKANSAS, INC.",333 SOUTH 1ST STREET,PARIS,72855,Yes,Yes,Yes,Yes,No,Yes,3.2422312786551197,94.09778357235986,71.06459926017263,78.76185241344453,79.96310174012447,81.67081019687026,79.42103969998708,75.8796644896914,13.867232669099073,11.63344092057255,11.63344092057255,0.3854331202206343,92.03302143787754,1.0009491042828331,97.7465119033519,470.7755026520291,515.5487200660612,71.59109411619588,76.5523794251881,69.80250894288885,82.4674762550882,14.321452702702702,249.1084323712507,3.9466250000000005,3.912418918918919,2.808114864864865,5.427471283783784,34.988546018056866,279.508198478191,10.245278264384853,10.24390782913354,7.124472443066972,14.673847190405604,0.9690223239839725,870.149787938347
AR,47162,VISITING NURSES AGENCY,600 SEVENTH STREET,MENA,71953,Yes,Yes,No,Yes,Yes,Yes,3.0,91.8,73.7,71.2,71.0,74.3,69.9,84.5,3.2,10.0,10.0,0.0,89.8,2.0,100.0,51.0,68.0,75.0,78.59,66.52,86.83,1.0,23.0,4.35,3.9,2.73,5.93,4.0,31.0,12.9,11.41,5.78,19.78,1.15,136.0
AR,47167,OZARK HEALTH HOME CARE,428 MEDICAL CENTER PARKWAY,CLINTON,72031,Yes,Yes,Yes,Yes,No,Yes,2.5,100.0,63.2,68.7,76.4,73.0,71.6,58.8,15.4,9.3,9.3,0.0,96.3,1.0,99.8,266.0,319.0,83.39,87.36,82.53,90.99,2.0,149.0,1.34,3.5,2.39,5.19,35.0,208.0,16.83,15.06,11.42,18.99,0.98,680.0
AR,47168,ENCOMPASS HEALTH HOME HEALTH,3809 EAST 9TH STREET - SUITE 12,TEXARKANA,71854,Yes,Yes,Yes,Yes,Yes,Yes,3.0,97.7,39.1,78.6,79.8,84.5,80.2,79.4,14.9,15.9,15.9,0.9,90.8,1.2,98.8,480.0,609.0,78.82,83.92,80.56,87.12,2.0,255.0,0.78,3.11,2.22,4.27,38.0,341.0,11.14,11.59,8.54,14.72,1.09,1129.0
AR,47169,ELITE HOME HEALTH,310 W COLLEGE STREET,FORDYCE,71742,Yes,Yes,Yes,Yes,No,Yes,4.5,100.0,57.5,89.8,88.9,91.0,93.3,86.1,16.1,15.8,15.8,0.0,98.6,0.8,99.8,433.0,533.0,81.24,89.86,85.91,93.23,10.0,274.0,3.65,3.75,2.61,5.07,32.0,285.0,11.23,9.99,7.33,13.08,1.04,785.0
AR,47170,ENCOMPASS HEALTH HOME HEALTH,"540 E APPLEBY DRIVE, SUITE 102",FAYETTEVILLE,72703,Yes,Yes,Yes,Yes,Yes,Yes,4.5,85.7,73.7,95.6,93.1,100.0,91.2,100.0,11.4,12.9,12.9,0.1,99.2,2.6,99.9,755.0,995.0,75.88,81.44,78.57,84.26,9.0,390.0,2.31,3.34,2.41,4.7,54.0,557.0,9.69,10.29,8.03,13.06,1.05,1867.0
AR,47172,ENCOMPASS HEALTH HOME HEALTH,"540 E APPLEBY ROAD, SUITE 103",FAYETTEVILLE,72703,Yes,Yes,Yes,Yes,Yes,Yes,4.0,86.0,76.0,100.0,94.2,100.0,87.1,100.0,14.5,14.4,14.4,0.2,98.7,3.1,99.8,407.0,540.0,75.37,83.34,79.47,87.46,6.0,188.0,3.19,3.77,2.53,5.33,37.0,301.0,12.29,11.35,8.34,14.63,1.21,1481.0
AR,47173,CARE IV HOME HEALTH,1008 WEST MAIN STREET,RUSSELLVILLE,72801,Yes,Yes,Yes,Yes,Yes,Yes,4.5,98.2,64.1,97.0,95.2,99.2,88.1,94.8,17.4,7.4,7.4,0.2,99.2,2.0,100.0,231.0,346.0,66.76,72.5,67.0,77.38,7.0,129.0,5.43,4.15,2.94,5.63,38.0,220.0,17.27,15.59,11.56,20.06,1.06,936.0
AR,47174,CARE IV HOME HEALTH,"100 RIDGEWAY, SUITE 3",HOT SPRINGS,71901,Yes,Yes,Yes,Yes,Yes,Yes,4.5,99.4,77.5,93.0,90.8,95.4,89.7,90.1,13.8,6.1,6.1,0.2,98.1,1.2,99.8,293.0,430.0,68.14,71.68,67.31,75.77,4.0,208.0,1.92,3.53,2.45,5.17,25.0,235.0,10.64,10.46,7.63,14.24,0.98,990.0
AR,47175,COMMUNITY HOME HEALTH,2315 HWY 62/412,HIGHLAND,72542,Yes,Yes,Yes,Yes,No,Yes,2.5,100.0,73.8,73.5,69.0,78.5,64.8,63.2,17.3,16.0,16.0,0.0,99.7,1.5,99.7,166.0,243.0,68.31,71.24,65.65,76.84,2.0,80.0,2.5,3.77,2.6,5.59,23.0,127.0,18.11,15.88,11.58,21.54,1.1,854.0
AR,47176,HOME BOUND MEDICAL,358 HIGHWAY 5 NORTH,MOUNTAIN HOME,72653,Yes,Yes,Yes,Yes,No,Yes,4.0,95.0,86.4,79.5,92.7,99.2,80.6,75.8796644896914,13.867232669099073,11.63344092057255,11.63344092057255,0.0,90.0,5.0,100.0,470.7755026520291,19.0,71.59109411619588,76.5523794251881,69.80250894288885,82.4674762550882,14.321452702702702,11.0,3.9466250000000005,3.912418918918919,2.808114864864865,5.427471283783784,34.988546018056866,17.0,10.245278264384853,10.24390782913354,7.124472443066972,14.673847190405604,0.84,21.0
AR,47178,CARE IV HOME HEALTH,1023 RUSHING CIRCLE,LITTLE ROCK,72204,Yes,Yes,Yes,Yes,Yes,Yes,4.0,98.5,67.6,85.8,90.4,92.2,88.4,89.0,11.3,9.0,9.0,0.0,97.6,1.2,99.8,327.0,572.0,57.17,61.39,56.94,65.18,5.0,258.0,1.94,3.43,2.54,4.73,45.0,309.0,14.56,13.01,10.09,16.25,1.03,1665.0
AR,47179,CARE IV HOME HEALTH,3801 JOHNSON MILL BLVD,FAYETTEVILLE,72704,Yes,Yes,Yes,Yes,Yes,Yes,4.0,99.8,71.2,82.3,86.4,89.1,85.6,81.7,9.8,10.2,10.2,0.2,98.1,2.6,100.0,249.0,350.0,71.14,76.81,72.12,81.63,7.0,179.0,3.91,3.89,2.81,5.5,23.0,231.0,9.96,9.63,7.07,13.15,0.85,670.0
AR,47180,THRIVE AT HOME,"7197 SHERIDAN ROAD, SUITE 105",WHITE HALL,71602,Yes,Yes,No,No,No,No,3.5,93.2,83.7,88.9,93.7,95.3,92.5,69.9,16.8,14.8,14.8,0.5,98.4,1.6,97.4,101.0,142.0,71.13,72.86,65.58,79.98,0.0,22.0,0.0,3.78,2.45,5.59,13.0,108.0,12.04,12.97,8.5,19.3,0.93,181.0
AR,47181,"THRIVE PEDIATRIC NURSING, INC","808 RESERVOIR ROAD, SUITE A",LITTLE ROCK,72227,Yes,Yes,Yes,No,No,Yes,3.2422312786551197,94.09778357235986,71.06459926017263,78.76185241344453,79.96310174012447,81.67081019687026,79.42103969998708,75.8796644896914,13.867232669099073,11.63344092057255,11.63344092057255,0.3854331202206343,92.03302143787754,1.0009491042828331,97.7465119033519,470.7755026520291,515.5487200660612,71.59109411619588,76.5523794251881,69.80250894288885,82.4674762550882,14.321452702702702,249.1084323712507,3.9466250000000005,3.912418918918919,2.808114864864865,5.427471283783784,34.988546018056866,279.508198478191,10.245278264384853,10.24390782913354,7.124472443066972,14.673847190405604,0.9690223239839725,870.149787938347
AR,47306,AAA SOUTHEAST AR DREW CO,110 EAST GAINS STREET,MONTICELLO,71657,Yes,Yes,No,No,No,Yes,3.0,97.1,71.06459926017263,87.7,87.5,67.3,70.5,75.8796644896914,13.867232669099073,11.63344092057255,11.63344092057255,0.0,94.1,0.0,100.0,36.0,47.0,76.6,78.31,67.08,87.29,14.321452702702702,18.0,3.9466250000000005,3.912418918918919,2.808114864864865,5.427471283783784,1.0,23.0,4.35,9.16,4.89,16.05,1.06,58.0
AR,47326,BAPTIST HEALTH HOME HEALTH - ARKADELPHIA,3050 TWIN RIVERS DRIVE,ARKADELPHIA,71923,Yes,Yes,Yes,Yes,Yes,Yes,2.5,99.4,78.5,70.1,81.0,75.0,71.0,66.4,13.4,13.1,13.1,0.0,89.1,1.2,99.7,200.0,237.0,84.39,88.99,83.6,93.29,9.0,146.0,6.16,4.38,3.02,6.03,12.0,122.0,9.84,9.7,6.26,14.6,0.97,335.0
AR,47338,BAXTER REGIONAL HOME HEALTH MARION COUNTY,30 RYAN ROAD,COTTER,72626,Yes,Yes,Yes,Yes,Yes,Yes,3.0,97.8,59.7,81.4,84.9,78.6,77.5,81.0,10.7,19.7,19.7,1.0,93.4,0.6,99.2,188.0,265.0,70.94,74.59,68.45,79.72,4.0,135.0,2.96,3.81,2.69,5.59,13.0,130.0,10.0,10.64,7.01,16.22,0.89,362.0
AR,47339,ELITE HOME HEALTH,"2910 JENNY LIND ROAD, SUITE 9A",FORT SMITH,72901,Yes,Yes,Yes,Yes,Yes,Yes,4.5,98.8,63.3,91.6,89.5,95.9,89.9,89.3,10.4,14.7,14.7,0.2,93.2,1.2,99.8,828.0,1070.0,77.38,84.91,82.49,87.55,15.0,438.0,3.42,3.6,2.68,4.78,80.0,621.0,12.88,12.08,9.93,14.44,1.0,2138.0
AR,47346,ELITE HOME HEALTH,"4847 KAYLEE AVENUE, SUITE B",SPRINGDALE,72762,Yes,Yes,Yes,Yes,Yes,Yes,4.5,99.5,71.0,90.2,89.4,96.4,92.6,90.9,12.8,12.7,12.7,0.0,95.5,1.5,100.0,918.0,1130.0,81.24,88.61,85.85,91.03,13.0,399.0,3.26,3.63,2.67,5.02,72.0,625.0,11.52,11.14,9.14,13.35,1.0,1904.0
AR,47803,CENTERWELL HOME HEALTH,105 EAST CRANDALL AVENUE STE A,HARRISON,72601,Yes,Yes,Yes,No,No,No,4.0,99.8,69.2,88.1,86.0,91.7,90.3,82.5,11.6,20.1,20.1,0.4,99.8,2.5,100.0,224.0,276.0,81.16,84.72,80.23,89.0,4.0,126.0,3.17,3.92,2.65,5.55,12.0,137.0,8.76,9.17,6.39,13.12,0.94,534.0
AR,47818,KINDRED AT HOME,"420 WEST GAINES STREET, SUITE 1",MONTICELLO,71655,Yes,Yes,Yes,No,No,No,5.0,100.0,51.8,94.8,94.8,96.2,93.6,91.5,14.4,13.0,13.0,0.0,100.0,0.8,100.0,244.0,318.0,76.73,86.72,81.49,91.72,7.0,162.0,4.32,3.88,2.74,5.41,12.0,163.0,7.36,7.33,5.08,10.64,0.94,501.0
AR,47823,CENTERWELL HOME HEALTH,1707 LINWOOD DRIVE STE E,PARAGOULD,72450,Yes,Yes,No,Yes,No,No,4.5,99.6,63.5,86.5,87.7,93.1,100.0,83.0,13.5,9.4,9.4,0.2,94.7,1.3,100.0,294.0,432.0,68.06,77.3,72.02,81.69,7.0,204.0,3.43,3.63,2.63,5.02,22.0,216.0,10.19,8.3,5.88,11.27,1.13,652.0
AR,47824,KINDRED AT HOME,209 SOUTH MAIN STREET,HOPE,71801,Yes,Yes,Yes,Yes,No,Yes,4.5,100.0,70.9,93.5,88.0,94.7,90.6,86.3,18.5,18.9,18.9,0.4,99.8,0.7,99.3,180.0,238.0,75.63,82.58,75.72,88.07,5.0,106.0,4.72,4.07,2.85,5.93,15.0,133.0,11.28,10.32,6.86,15.13,1.02,511.0
AR,47838,CENTERWELL HOME HEALTH,"210 N STATE LINE AVENUE, SUITE 501",TEXARKANA,71854,Yes,Yes,Yes,Yes,No,Yes,3.5,99.4,77.5,89.9,87.0,86.2,87.1,80.6,16.9,8.7,8.7,0.0,99.4,1.2,99.4,97.0,139.0,69.78,74.87,66.84,81.75,3.0,38.0,7.89,4.17,2.86,5.99,13.0,95.0,13.68,11.89,7.88,17.43,1.12,380.0
AR,47840,CENTERWELL HOME HEALTH,409 WEST FOUTH STREET,BRINKLEY,72021,Yes,Yes,No,No,No,No,4.0,99.8,67.5,88.7,85.6,93.1,89.8,85.6,16.9,14.9,14.9,0.8,96.3,0.7,99.5,193.0,261.0,73.95,80.06,74.55,85.67,6.0,109.0,5.5,4.01,2.76,5.54,16.0,151.0,10.6,9.77,6.76,13.45,0.88,495.0
AR,47844,KINDRED AT HOME,222 WEST WASHINGTON STREET,CAMDEN,71701,Yes,Yes,Yes,No,No,No,5.0,100.0,94.6,98.0,94.2,98.2,91.1,92.0,12.8,11.3,11.3,0.0,98.9,0.0,99.7,305.0,430.0,70.93,77.6,73.28,81.85,3.0,125.0,2.4,3.68,2.54,5.26,20.0,228.0,8.77,8.99,6.28,12.07,1.07,818.0
AR,47850,CENTERWELL HOME HEALTH,1509 EAST MAIN SUITE 6,RUSSELLVILLE,72801,Yes,Yes,Yes,No,No,Yes,3.5,98.6,60.0,82.6,83.8,87.5,85.4,80.5,14.4,12.8,12.8,0.0,98.0,0.8,99.6,248.0,309.0,80.26,87.11,81.25,91.23,6.0,156.0,3.85,3.85,2.64,5.34,17.0,177.0,9.6,9.26,6.6,13.07,0.98,526.0
AR,47853,CENTERWELL HOME HEALTH,925 N WASHINGTON STREET,FORREST CITY,72335,Yes,Yes,Yes,Yes,No,Yes,4.5,98.3,50.0,92.3,87.3,99.1,97.7,88.4,11.8,17.3,17.3,0.2,87.5,0.2,98.7,179.0,248.0,72.18,81.67,76.03,87.78,3.0,96.0,3.13,3.75,2.65,5.45,15.0,169.0,8.88,8.68,5.67,12.6,1.07,476.0
AR,47855,CENTERWELL HOME HEALTH,72 WEST 2ND STREET,WALDRON,72958,Yes,Yes,Yes,Yes,No,No,4.5,99.2,68.7,90.2,89.8,93.0,93.3,86.4,10.6,16.8,16.8,0.7,99.2,1.3,99.5,156.0,228.0,68.42,74.22,67.72,79.61,1.0,69.0,1.45,3.61,2.42,5.05,13.0,129.0,10.08,9.87,6.55,14.12,0.93,494.0
AR,47870,CENTERWELL HOME HEALTH,"14 ARNOLD SPRINGS ROAD, SUITE C",MELBOURNE,72556,Yes,Yes,Yes,Yes,No,No,4.0,100.0,74.9,91.8,87.4,91.9,88.5,87.2,15.9,8.6,8.6,0.0,97.1,0.6,100.0,230.0,296.0,77.7,85.2,79.37,89.93,3.0,117.0,2.56,3.71,2.62,5.25,6.0,149.0,4.03,6.39,4.1,9.68,0.95,440.0
AZ,37015,BANNER HOME CARE AZ,"275 EAST GERMANN ROAD, SUITE 110S",GILBERT,85297,Yes,Yes,Yes,Yes,Yes,Yes,4.0,99.0,74.1,85.0,87.0,89.4,91.2,84.3,11.3,14.1,14.1,0.2,99.3,0.6,99.6,4643.0,5644.0,82.26,90.04,88.72,91.24,179.0,3812.0,4.7,4.47,3.86,5.08,263.0,2752.0,9.56,8.37,7.44,9.38,0.97,6510.0
AZ,37016,INTERIM HEALTHCARE,"5055 EAST BROADWAY, SUITE D-104",TUCSON,85711,Yes,Yes,Yes,Yes,Yes,Yes,2.5,80.5,77.5,77.0,79.2,81.3,84.7,75.8,13.3,16.6,16.6,0.2,94.6,0.5,91.6,88.0,121.0,72.73,77.89,70.18,85.03,1.0,32.0,3.13,3.9,2.65,5.66,6.0,64.0,9.38,10.55,6.6,17.27,0.92,220.0
AZ,37024,SCOTTSDALE HEALTHCARE HOME HEALTH,3634 N DRINKWATER BLVD,SCOTTSDALE,85251,Yes,Yes,Yes,Yes,Yes,Yes,3.0,98.2,74.0,81.1,82.4,87.2,87.6,79.8,15.5,8.7,8.7,0.5,99.1,0.9,100.0,1088.0,1364.0,79.77,84.36,82.33,86.37,44.0,869.0,5.06,4.92,3.93,6.27,58.0,658.0,8.81,8.76,6.98,10.82,1.03,1617.0
AZ,37027,SUMMIT HEALTHCARE HOME HEALTH,2500 EAST HUNT,SHOW LOW,85901,Yes,Yes,No,No,Yes,Yes,3.5,93.1,45.4,82.2,86.0,85.6,89.7,77.7,10.7,21.2,21.2,0.0,97.2,1.6,95.2,371.0,463.0,80.13,82.62,78.65,86.04,11.0,257.0,4.28,4.17,2.93,5.95,10.0,182.0,5.49,7.29,5.06,10.29,0.89,610.0
AZ,37030,"BAYADA HOME HEALTH CARE, INC.","2971 WILLOW CREEK ROAD, BUILDING 1, SUITE A",PRESCOTT,86301,Yes,Yes,Yes,Yes,Yes,Yes,4.0,99.5,63.4,90.5,87.3,90.7,86.8,84.9,13.9,16.7,16.7,0.6,97.5,0.8,96.2,515.0,656.0,78.51,84.09,80.52,86.87,7.0,263.0,2.66,3.62,2.53,5.11,25.0,313.0,7.99,8.23,5.81,10.93,0.94,1007.0
AZ,37036,CENTERWELL HOME HEALTH,"5255 EAST WILLIAMS CIRCLE, SUITE 6400",TUCSON,85711,Yes,Yes,Yes,No,Yes,Yes,4.0,97.2,87.4,85.3,84.4,89.6,92.9,82.1,10.4,9.8,9.8,0.0,95.9,0.4,99.4,420.0,524.0,80.15,85.41,81.39,88.41,3.0,249.0,1.2,3.24,2.24,4.5,15.0,181.0,8.29,8.51,5.71,12.24,0.93,877.0
AZ,37037,CENTERWELL HOME HEALTH,"16620 NORTH 40TH STREET, SUITE D4",PHOENIX,85032,Yes,Yes,Yes,Yes,Yes,Yes,3.5,95.9,71.9,84.0,85.0,88.0,92.4,81.4,14.4,10.4,10.4,0.3,92.5,0.7,99.1,2483.0,3061.0,81.12,83.75,82.25,85.21,33.0,1096.0,3.01,3.7,2.9,4.78,92.0,1512.0,6.08,7.41,6.02,9.01,1.01,4239.0
AZ,37042,NORTHERN ARIZONA HOME HEALTH,"203 SOUTH CANDY LANE, SUITE 5A",COTTONWOOD,86326,Yes,Yes,No,Yes,Yes,No,4.0,98.8,57.7,89.3,87.5,94.8,85.6,84.2,11.0,21.2,21.2,0.6,95.3,1.9,100.0,377.0,436.0,86.47,90.6,86.77,93.57,2.0,200.0,1.0,3.32,2.43,4.82,15.0,230.0,6.52,8.04,5.33,11.76,0.92,605.0
AZ,37047,NORTHERN ARIZONA HOME HEALTH,"1501 SOUTH YALE STREET, SUITE 101",FLAGSTAFF,86001,Yes,Yes,Yes,No,Yes,No,4.0,99.4,72.4,87.5,90.9,93.7,86.8,85.2,11.6,14.1,14.1,0.7,88.4,2.3,100.0,292.0,360.0,81.11,87.38,82.85,91.09,5.0,143.0,3.5,3.91,2.76,5.67,17.0,182.0,9.34,9.75,6.92,13.41,0.93,606.0
AZ,37050,KINGMAN REGIONAL MEDICAL CENTER HOME HEALTH,"2202 STOCKTON HILL ROAD, SUITE 200",KINGMAN,86401,Yes,Yes,Yes,No,Yes,Yes,4.0,97.3,51.4,89.5,84.3,94.1,88.6,84.0,14.2,20.5,20.5,0.5,96.3,1.3,99.4,339.0,408.0,83.09,88.82,84.38,92.08,8.0,260.0,3.08,3.66,2.66,4.99,19.0,182.0,10.44,9.56,6.55,12.89,0.86,677.0
AZ,37057,HAVASU REGIONAL MEDICAL CENTER HOME HEALTH,"1830 MESQUITE AVENUE, SUITE B",LAKE HAVASU CITY,86403,Yes,Yes,Yes,Yes,Yes,Yes,4.5,99.4,61.2,87.8,90.0,89.6,91.4,90.6,6.3,12.0,12.0,0.0,99.1,0.9,100.0,271.0,328.0,82.62,93.24,87.74,97.33,11.0,216.0,5.09,4.18,3.01,5.63,10.0,166.0,6.02,6.73,4.48,9.64,0.98,419.0
AZ,37068,"BAYADA HOME HEALTH CARE, INC.","7250 NORTH 16TH STREET, SUITE 301",PHOENIX,85020,Yes,Yes,Yes,Yes,Yes,Yes,3.2422312786551197,94.09778357235986,71.06459926017263,78.76185241344453,79.96310174012447,81.67081019687026,79.42103969998708,75.8796644896914,13.867232669099073,11.63344092057255,11.63344092057255,0.3854331202206343,92.03302143787754,1.0009491042828331,97.7465119033519,470.7755026520291,515.5487200660612,71.59109411619588,76.5523794251881,69.80250894288885,82.4674762550882,14.321452702702702,249.1084323712507,3.9466250000000005,3.912418918918919,2.808114864864865,5.427471283783784,34.988546018056866,279.508198478191,10.245278264384853,10.24390782913354,7.124472443066972,14.673847190405604,0.9690223239839725,870.149787938347
AZ,37070,"DEPENDABLE HOME HEALTH, INC","1121 NORTH EL DORADO PLACE, SUITE 350",TUCSON,85715,Yes,Yes,Yes,Yes,Yes,Yes,4.0,100.0,79.3,82.2,83.6,91.1,89.8,79.0,11.6,11.7,11.7,0.3,99.5,0.4,99.9,409.0,517.0,79.11,84.21,80.67,87.7,9.0,279.0,3.23,3.82,2.68,5.19,31.0,273.0,11.36,11.85,8.82,15.98,0.96,687.0
AZ,37099,EDEN HOME HEALTH,"4066 EAST MONSANTO DRIVE, UNIT E",SIERRA VISTA,85650,Yes,Yes,Yes,Yes,Yes,Yes,3.0,99.8,47.9,76.5,76.4,79.5,80.6,69.2,13.1,14.4,14.4,0.3,98.2,1.4,99.8,187.0,221.0,84.62,90.34,85.0,94.65,3.0,109.0,2.75,3.78,2.75,5.47,11.0,109.0,10.09,9.56,6.25,13.83,0.94,307.0
AZ,37101,FOUNDATION FOR SENIOR LIVING HOME HEALTH AGENCY,1201 EAST THOMAS ROAD,PHOENIX,85014,Yes,Yes,Yes,Yes,Yes,Yes,3.2422312786551197,94.09778357235986,71.06459926017263,78.76185241344453,79.96310174012447,81.67081019687026,79.42103969998708,75.8796644896914,13.867232669099073,11.63344092057255,11.63344092057255,0.3854331202206343,92.03302143787754,1.0009491042828331,97.7465119033519,470.7755026520291,2.0,71.59109411619588,76.5523794251881,69.80250894288885,82.4674762550882,14.321452702702702,1.0,3.9466250000000005,3.912418918918919,2.808114864864865,5.427471283783784,34.988546018056866,279.508198478191,10.245278264384853,10.24390782913354,7.124472443066972,14.673847190405604,0.9690223239839725,2.0
AZ,37106,AMEDISYS HOME HEALTH CARE,645 E MISSOURI  AVE,PHOENIX,85012,Yes,Yes,Yes,Yes,Yes,No,4.5,100.0,84.9,87.7,92.1,93.9,98.4,85.7,12.2,12.8,12.8,0.0,96.7,0.9,99.8,734.0,932.0,78.76,84.35,81.5,87.1,8.0,312.0,2.56,3.49,2.47,4.67,50.0,539.0,9.28,9.35,7.44,11.56,1.09,1487.0
AZ,37112,INTREPID USA HEALTHCARE SERVICES,"1820 EAST RIVER ROAD, SUITE 115",TUCSON,85718,Yes,Yes,Yes,Yes,Yes,Yes,2.5,97.9,91.1,75.3,78.1,80.1,78.3,76.3,15.0,15.0,15.0,2.4,98.1,1.7,99.3,196.0,262.0,74.81,80.81,74.69,85.98,0.0,104.0,0.0,3.41,2.33,5.03,10.0,114.0,8.77,9.37,6.09,13.94,0.94,516.0
AZ,37114,BANNER HOME CARE - PAYSON,"708 EAST ROUTE 260, SUITE A1",PAYSON,85541,Yes,Yes,Yes,Yes,Yes,Yes,4.0,99.8,62.8,87.8,85.3,88.0,88.3,79.9,13.9,14.8,14.8,0.0,99.2,1.2,99.8,394.0,452.0,87.17,94.06,90.77,96.89,6.0,259.0,2.32,3.52,2.49,4.7,17.0,243.0,7.0,7.53,5.24,10.52,0.95,581.0
AZ,37118,NURSECORE OF TUCSON,"2980 NORTH CAMPBELL, SUITE 160",TUCSON,85719,Yes,No,No,No,No,Yes,3.2422312786551197,94.09778357235986,71.06459926017263,78.76185241344453,79.96310174012447,81.67081019687026,79.42103969998708,75.8796644896914,13.867232669099073,11.63344092057255,11.63344092057255,0.3854331202206343,92.03302143787754,1.0009491042828331,97.7465119033519,470.7755026520291,515.5487200660612,71.59109411619588,76.5523794251881,69.80250894288885,82.4674762550882,14.321452702702702,249.1084323712507,3.9466250000000005,3.912418918918919,2.808114864864865,5.427471283783784,34.988546018056866,279.508198478191,10.245278264384853,10.24390782913354,7.124472443066972,14.673847190405604,0.9690223239839725,870.149787938347
AZ,37125,"NSI NURSING SERVICE, INC.","5995 EAST GRANT ROAD, SUITE 107",TUCSON,85712,Yes,Yes,Yes,Yes,No,Yes,3.2422312786551197,93.8,53.7,51.8,55.7,69.4,79.42103969998708,75.8796644896914,13.867232669099073,11.63344092057255,11.63344092057255,2.1,53.6,0.9,100.0,470.7755026520291,7.0,71.59109411619588,76.5523794251881,69.80250894288885,82.4674762550882,14.321452702702702,1.0,3.9466250000000005,3.912418918918919,2.808114864864865,5.427471283783784,34.988546018056866,2.0,10.245278264384853,10.24390782913354,7.124472443066972,14.673847190405604,0.9690223239839725,12.0
AZ,37129,"DEPENDABLE HOME HEALTH, INC.","857 WEST BELL ROAD, SUITE 7",NOGALES,85621,Yes,Yes,No,No,No,Yes,2.5,99.2,72.9,62.4,72.0,72.5,80.4,65.6,13.867232669099073,11.63344092057255,11.63344092057255,0.4,99.6,0.4,100.0,23.0,31.0,74.19,76.79,61.84,88.18,0.0,23.0,0.0,3.78,2.53,5.53,34.988546018056866,14.0,10.245278264384853,10.24390782913354,7.124472443066972,14.673847190405604,0.95,63.0
AZ,37130,"BAYADA HOME HEALTH CARE, INC","7070 NORTH ORACLE ROAD, SUITE 100",TUCSON,85704,Yes,Yes,Yes,Yes,Yes,Yes,4.0,97.8,82.7,93.1,90.5,92.0,88.3,91.3,14.1,16.1,16.1,0.0,93.4,1.7,97.1,1212.0,1613.0,75.14,82.47,80.06,84.73,20.0,793.0,2.52,3.25,2.44,4.28,101.0,899.0,11.23,10.2,8.57,12.15,1.07,2386.0
AZ,37132,MD HOME HEALTH,"7500 DREAMY DRAW DRIVE, SUITE 200",PHOENIX,85020,Yes,Yes,Yes,Yes,Yes,Yes,3.0,99.0,79.1,74.7,78.7,81.7,77.7,76.0,11.0,9.4,9.4,0.1,97.9,1.1,99.9,447.0,539.0,82.93,88.97,85.24,91.89,6.0,183.0,3.28,3.72,2.68,5.11,20.0,296.0,6.76,7.89,5.85,10.61,0.91,761.0
AZ,37139,CENTERWELL HOME HEALTH,"3107 CLEARWATER DRIVE, SUITE A",PRESCOTT,86305,Yes,Yes,Yes,Yes,Yes,Yes,5.0,100.0,71.7,95.4,93.8,92.3,92.8,91.7,13.0,17.5,17.5,0.0,97.3,1.6,100.0,729.0,895.0,81.45,89.12,86.46,91.57,11.0,447.0,2.46,3.48,2.61,4.9,30.0,518.0,5.79,5.75,4.33,7.67,1.0,1467.0
AZ,37144,SACRED HEART HOME HEALTH CARE - TUCSON,4400 E BROADWAY BLVD. STE. 405,TUCSON,85711,Yes,Yes,Yes,Yes,Yes,Yes,4.5,98.9,86.8,92.3,91.4,92.8,88.4,91.0,10.3,15.2,15.2,0.0,99.5,1.2,99.8,594.0,790.0,75.19,85.84,82.27,88.87,11.0,436.0,2.52,3.4,2.49,4.45,39.0,492.0,7.93,7.05,5.41,9.17,0.99,1208.0
AZ,37154,NURSES NETWORK BY QUALITY HOME HEALTH CARE,3085 NORTH WINDSONG DRIVE,PRESCOTT VALLEY,86314,Yes,Yes,Yes,Yes,Yes,Yes,4.5,99.8,69.6,85.6,93.3,92.5,90.5,86.7,15.1,14.0,14.0,0.4,94.3,1.1,99.8,280.0,343.0,81.63,85.54,81.16,89.44,4.0,206.0,1.94,3.53,2.45,4.85,23.0,209.0,11.0,11.32,7.94,15.42,1.1,494.0
AZ,37162,ANGELS OF CARE,14350 N 87TH ST STE 145,SCOTTSDALE,85260,Yes,No,No,Yes,No,No,3.2422312786551197,94.09778357235986,71.06459926017263,78.76185241344453,79.96310174012447,81.67081019687026,79.42103969998708,75.8796644896914,13.867232669099073,11.63344092057255,11.63344092057255,0.3854331202206343,92.03302143787754,1.0009491042828331,97.7465119033519,470.7755026520291,515.5487200660612,71.59109411619588,76.5523794251881,69.80250894288885,82.4674762550882,14.321452702702702,249.1084323712507,3.9466250000000005,3.912418918918919,2.808114864864865,5.427471283783784,34.988546018056866,279.508198478191,10.245278264384853,10.24390782913354,7.124472443066972,14.673847190405604,0.9690223239839725,870.149787938347
AZ,37178,"HORIZON HOME HEALTH, LLC",906 NORTH NAVAJO DRIVE,PAGE,86040,Yes,No,No,No,No,Yes,3.2422312786551197,94.09778357235986,71.06459926017263,78.76185241344453,79.96310174012447,81.67081019687026,79.42103969998708,75.8796644896914,13.867232669099073,11.63344092057255,11.63344092057255,0.3854331202206343,92.03302143787754,1.0009491042828331,97.7465119033519,5.0,22.0,22.73,34.8,20.21,53.44,14.321452702702702,1.0,3.9466250000000005,3.912418918918919,2.808114864864865,5.427471283783784,34.988546018056866,3.0,10.245278264384853,10.24390782913354,7.124472443066972,14.673847190405604,0.45,55.0
AZ,37179,COPPER VALLEY HOME HEALTH,101 COLE AVENUE,BISBEE,85603,Yes,Yes,No,No,No,Yes,2.0,75.4,83.3,68.6,67.7,74.6,94.3,58.7,13.867232669099073,11.63344092057255,11.63344092057255,0.0,96.8,0.0,100.0,38.0,67.0,56.72,63.36,51.33,74.85,3.0,39.0,7.69,4.15,2.83,5.93,34.988546018056866,12.0,10.245278264384853,10.24390782913354,7.124472443066972,14.673847190405604,0.72,118.0
AZ,37185,"BAYADA HOME HEALTH CARE, INC.","18001 NORTH 79TH AVENUE, SUITE A-3",GLENDALE,85308,Yes,Yes,Yes,Yes,Yes,Yes,4.0,99.8,86.4,84.7,85.4,90.5,90.7,88.8,16.8,14.5,14.5,0.0,98.4,0.9,98.4,360.0,517.0,69.63,79.65,74.89,83.59,19.0,267.0,7.12,4.79,3.41,6.46,60.0,311.0,19.29,13.91,11.21,16.88,1.15,722.0
AZ,37188,NIGHTINGALE HOMECARE,"2411 WEST ROSE GARDEN LANE, SUITE 110",PHOENIX,85027,Yes,Yes,Yes,Yes,Yes,Yes,3.0,98.5,80.5,76.7,83.3,82.4,88.3,72.2,11.8,11.1,11.1,1.1,98.5,0.7,100.0,737.0,879.0,83.85,90.04,87.72,92.36,9.0,396.0,2.27,3.27,2.41,4.33,38.0,508.0,7.48,7.78,6.02,10.05,0.93,1071.0
AZ,37192,AMEDISYS HOME HEALTH,"1380 SOUTH CASTLE DOME AVENUE, SUITE 107",YUMA,85365,Yes,Yes,Yes,Yes,Yes,Yes,4.5,98.9,65.4,88.6,92.8,92.1,95.1,87.6,12.3,12.4,12.4,0.2,97.1,1.3,98.0,825.0,1062.0,77.68,81.88,79.04,84.31,11.0,333.0,3.3,3.77,2.7,5.25,50.0,554.0,9.03,9.65,7.63,12.37,1.07,1667.0
AZ,37199,ARIZONA HOME CARE,1626 SOUTH EDWARD DRIVE,TEMPE,85281,Yes,Yes,Yes,Yes,Yes,Yes,2.5,97.3,70.9,74.0,80.8,79.7,81.8,73.1,14.1,11.8,11.8,0.3,99.5,0.6,100.0,1773.0,2120.0,83.63,88.77,86.92,90.27,66.0,1449.0,4.55,4.46,3.65,5.47,81.0,1022.0,7.93,7.93,6.68,9.49,1.15,2525.0
AZ,37202,THEMA HEALTH SERVICES,1725 EAST OSBORN ROAD SUITE 1,PHOENIX,85016,Yes,Yes,Yes,Yes,Yes,Yes,2.5,100.0,77.6,73.7,78.3,76.0,73.2,67.3,14.3,14.7,14.7,0.3,99.6,0.6,91.7,1199.0,1514.0,79.19,86.2,84.2,88.42,41.0,854.0,4.8,4.4,3.5,5.66,74.0,780.0,9.49,8.59,6.96,10.43,1.06,1858.0
AZ,37204,AVEANNA HEALTHCARE,"4745 NORTH 7TH STREET, SUITE 432",PHOENIX,85014,Yes,Yes,Yes,Yes,No,No,3.2422312786551197,94.09778357235986,71.06459926017263,78.76185241344453,79.96310174012447,81.67081019687026,79.42103969998708,75.8796644896914,13.867232669099073,11.63344092057255,11.63344092057255,0.3854331202206343,92.03302143787754,1.0009491042828331,97.7465119033519,470.7755026520291,7.0,71.59109411619588,76.5523794251881,69.80250894288885,82.4674762550882,14.321452702702702,249.1084323712507,3.9466250000000005,3.912418918918919,2.808114864864865,5.427471283783784,34.988546018056866,1.0,10.245278264384853,10.24390782913354,7.124472443066972,14.673847190405604,0.9690223239839725,870.149787938347
AZ,37205,NURSECORE OF PHOENIX,"300 WEST CLARENDON, SUITE 340",PHOENIX,85013,Yes,No,No,No,No,Yes,3.2422312786551197,94.09778357235986,71.06459926017263,78.76185241344453,79.96310174012447,81.67081019687026,79.42103969998708,75.8796644896914,13.867232669099073,11.63344092057255,11.63344092057255,0.3854331202206343,92.03302143787754,1.0009491042828331,97.7465119033519,470.7755026520291,515.5487200660612,71.59109411619588,76.5523794251881,69.80250894288885,82.4674762550882,14.321452702702702,249.1084323712507,3.9466250000000005,3.912418918918919,2.808114864864865,5.427471283783784,34.988546018056866,279.508198478191,10.245278264384853,10.24390782913354,7.124472443066972,14.673847190405604,0.9690223239839725,870.149787938347
AZ,37206,ANGELS OF CARE,"2980 NORTH CAMPBELL AVENUE, SUITE 190",TUCSON,85719,Yes,Yes,Yes,Yes,Yes,No,3.2422312786551197,94.09778357235986,71.06459926017263,78.76185241344453,79.96310174012447,81.67081019687026,79.42103969998708,75.8796644896914,13.867232669099073,11.63344092057255,11.63344092057255,0.3854331202206343,92.03302143787754,1.0009491042828331,97.7465119033519,470.7755026520291,515.5487200660612,71.59109411619588,76.5523794251881,69.80250894288885,82.4674762550882,14.321452702702702,249.1084323712507,3.9466250000000005,3.912418918918919,2.808114864864865,5.427471283783784,34.988546018056866,279.508198478191,10.245278264384853,10.24390782913354,7.124472443066972,14.673847190405604,0.9690223239839725,870.149787938347
AZ,37212,"INSPIRED HOMECARE OF ARIZONA, LLC","2421 EAST SOUTHERN AVENUE, SUITE 8",TEMPE,85282,Yes,Yes,Yes,Yes,Yes,Yes,4.0,98.4,90.0,86.3,80.9,90.7,91.7,79.9,4.6,13.9,13.9,0.0,93.0,0.0,100.0,202.0,234.0,86.32,87.22,82.58,91.24,0.0,49.0,0.0,3.68,2.39,5.47,1.0,76.0,1.32,6.94,3.97,11.43,0.92,300.0
AZ,37213,"BAYADA HOME HEALTH CARE, INC","6367 EAST TANQUE VERDE ROAD, SUITE 150",TUCSON,85715,Yes,Yes,Yes,Yes,Yes,Yes,4.0,97.4,79.5,93.0,91.3,94.5,86.2,84.7,14.5,11.7,11.7,0.3,96.3,1.8,98.1,1887.0,2511.0,75.15,81.05,78.93,82.89,32.0,861.0,3.72,3.96,3.1,5.12,145.0,1437.0,10.09,10.44,8.96,12.18,1.06,4035.0
AZ,37215,AT HOME HEALTHCARE,"8249 W THUNDERBIRD RD, SUITE 150",PEORIA,85381,Yes,Yes,No,Yes,Yes,No,5.0,99.3,79.3,94.8,96.3,97.1,93.3,96.3,9.8,7.2,7.2,0.0,97.9,0.7,100.0,234.0,318.0,73.58,80.69,74.69,85.56,8.0,99.0,8.08,4.51,3.11,6.56,21.0,165.0,12.73,11.28,7.74,15.65,1.06,628.0
AZ,37216,PROFESSIONAL HOME CARE SERVICES,"7600 NORTH 16TH STREET, SUITE 140",PHOENIX,85020,Yes,No,No,No,No,Yes,3.2422312786551197,94.09778357235986,71.06459926017263,78.76185241344453,79.96310174012447,81.67081019687026,79.42103969998708,75.8796644896914,13.867232669099073,11.63344092057255,11.63344092057255,0.3854331202206343,92.03302143787754,1.0009491042828331,97.7465119033519,470.7755026520291,515.5487200660612,71.59109411619588,76.5523794251881,69.80250894288885,82.4674762550882,14.321452702702702,249.1084323712507,3.9466250000000005,3.912418918918919,2.808114864864865,5.427471283783784,34.988546018056866,279.508198478191,10.245278264384853,10.24390782913354,7.124472443066972,14.673847190405604,0.9690223239839725,870.149787938347
AZ,37217,ANGELS CARE HOME HEALTH OF ARIZONA,301 SOUTH WILLARD,COTTONWOOD,86326,Yes,Yes,Yes,Yes,Yes,Yes,3.0,89.7,66.0,74.8,79.3,79.2,85.2,76.9,10.5,15.5,15.5,0.4,90.2,1.0,100.0,833.0,1059.0,78.66,82.01,79.62,84.45,15.0,580.0,2.59,3.53,2.65,4.72,62.0,507.0,12.23,12.58,9.79,15.71,1.0,2182.0
AZ,37220,ASSISTED HOME HEALTH,"1420 EAST MISSOURI AVENUE, SUITE 101",PHOENIX,85014,Yes,Yes,Yes,Yes,Yes,Yes,2.5,97.8,77.1,77.6,79.9,79.5,85.3,76.9,16.7,12.1,12.1,0.6,93.8,0.5,99.1,1250.0,1666.0,75.03,81.89,79.69,83.96,73.0,981.0,7.44,6.22,5.04,7.67,54.0,871.0,6.2,6.25,4.99,7.8,1.03,1707.0
AZ,37221,AT HOME HEALTHCARE,"17 WEST WETMORE ROAD, SUITE 201",TUCSON,85705,Yes,Yes,Yes,Yes,Yes,Yes,4.5,99.4,74.9,91.2,90.2,96.0,92.3,92.2,13.1,8.0,8.0,0.4,97.8,0.8,100.0,724.0,904.0,80.09,86.63,83.75,89.35,14.0,524.0,2.67,3.68,2.68,5.15,34.0,384.0,8.85,8.83,6.76,11.64,1.04,1433.0
AZ,37226,SUNRISE HEALTH SERVICES,"105 NORTH PASADENA STREET, SUITE 2",GILBERT,85233,Yes,Yes,Yes,Yes,Yes,Yes,4.0,99.8,79.4,83.2,88.0,91.5,95.2,86.1,12.4,13.2,13.2,0.3,99.0,0.8,100.0,412.0,529.0,77.88,83.38,79.16,86.77,11.0,216.0,5.09,4.42,3.14,6.09,43.0,354.0,12.15,12.06,9.19,15.71,1.07,788.0
AZ,37228,"MAXIM HEALTHCARE SERVICES, INC.","5151 EAST BROADWAY BOULEVARD, SUITE 1200",TUCSON,85711,Yes,No,No,No,No,Yes,3.2422312786551197,94.09778357235986,71.06459926017263,78.76185241344453,79.96310174012447,81.67081019687026,79.42103969998708,75.8796644896914,13.867232669099073,11.63344092057255,11.63344092057255,0.3854331202206343,92.03302143787754,1.0009491042828331,97.7465119033519,470.7755026520291,1.0,71.59109411619588,76.5523794251881,69.80250894288885,82.4674762550882,14.321452702702702,249.1084323712507,3.9466250000000005,3.912418918918919,2.808114864864865,5.427471283783784,34.988546018056866,1.0,10.245278264384853,10.24390782913354,7.124472443066972,14.673847190405604,0.9690223239839725,870.149787938347
AZ,37229,"MAXICARE HOME HEALTH, INC.","2432 WEST PEORIA AVENUE, SUITE 1120",PHOENIX,85029,Yes,Yes,Yes,No,No,No,3.2422312786551197,94.09778357235986,71.06459926017263,78.76185241344453,79.96310174012447,81.67081019687026,79.42103969998708,75.8796644896914,13.867232669099073,11.63344092057255,11.63344092057255,0.3854331202206343,92.03302143787754,1.0009491042828331,97.7465119033519,470.7755026520291,515.5487200660612,71.59109411619588,76.5523794251881,69.80250894288885,82.4674762550882,14.321452702702702,249.1084323712507,3.9466250000000005,3.912418918918919,2.808114864864865,5.427471283783784,34.988546018056866,279.508198478191,10.245278264384853,10.24390782913354,7.124472443066972,14.673847190405604,0.9690223239839725,870.149787938347
AZ,37230,VICTORY HOME CARE AGENCY,"1212 NORTH SPENCER STREET, SUITE 1",MESA,85203,Yes,Yes,Yes,Yes,Yes,Yes,4.5,100.0,75.9,91.5,93.9,93.2,89.0,88.1,16.2,16.3,16.3,0.4,98.4,2.3,100.0,500.0,629.0,79.49,88.02,84.42,91.17,15.0,429.0,3.5,3.84,2.8,5.22,38.0,394.0,9.64,7.99,6.19,10.18,1.06,1299.0
AZ,37231,"SUPREME HOME CARE, INC.","1204 EAST BASELINE ROAD, SUITE 102",TEMPE,85283,Yes,Yes,Yes,Yes,Yes,No,2.0,77.9,31.1,68.9,67.4,77.9,86.6,56.7,13.867232669099073,11.63344092057255,11.63344092057255,2.5,65.3,0.9,100.0,15.0,25.0,60.0,64.44,47.66,78.68,14.321452702702702,7.0,3.9466250000000005,3.912418918918919,2.808114864864865,5.427471283783784,34.988546018056866,18.0,10.245278264384853,10.24390782913354,7.124472443066972,14.673847190405604,0.9,28.0
AZ,37232,AMERICAN PREMIER HOME HEALTH CARE,"11070 NORTH 24TH AVENUE, SUITE 100",PHOENIX,85029,Yes,Yes,Yes,Yes,Yes,Yes,3.0,100.0,81.6,71.9,67.2,73.9,95.6,75.9,14.6,9.6,9.6,0.7,100.0,0.4,100.0,179.0,264.0,67.8,72.87,66.45,78.09,4.0,109.0,3.67,3.9,2.7,5.68,30.0,189.0,15.87,12.69,9.67,16.5,0.96,1220.0
AZ,37233,HORIZON HOME HEALTH OF PHOENIX,"2720 EAST THOMAS ROAD, SUITE 270B",PHOENIX,85016,Yes,Yes,Yes,No,Yes,Yes,2.5,78.1,67.3,75.7,81.6,80.0,72.8,73.4,13.867232669099073,11.63344092057255,11.63344092057255,0.4,80.4,0.5,99.8,470.7755026520291,19.0,71.59109411619588,76.5523794251881,69.80250894288885,82.4674762550882,14.321452702702702,5.0,3.9466250000000005,3.912418918918919,2.808114864864865,5.427471283783784,34.988546018056866,13.0,10.245278264384853,10.24390782913354,7.124472443066972,14.673847190405604,1.18,25.0
AZ,37234,TEAM SELECT HOME CARE,"3033 NORTH 44TH STREET, SUITE 330",PHOENIX,85018,Yes,Yes,Yes,Yes,Yes,Yes,4.0,98.7,82.4,91.3,85.0,90.5,90.4,84.0,16.7,10.9,10.9,0.4,96.7,1.4,97.2,1956.0,2391.0,81.81,88.44,86.57,90.25,46.0,1175.0,3.91,4.2,3.29,5.24,130.0,1159.0,11.22,11.41,9.75,13.12,1.06,3527.0
AZ,37235,"FIRSTAT HOME HEALTH SERVICES, LLC","7330 NORTH 16TH STREET, SUITE  C-117",PHOENIX,85020,Yes,Yes,Yes,No,Yes,Yes,2.0,99.8,76.5,58.2,55.8,62.5,55.7,59.1,13.867232669099073,11.63344092057255,11.63344092057255,1.1,99.3,0.6,99.9,470.7755026520291,15.0,71.59109411619588,76.5523794251881,69.80250894288885,82.4674762550882,14.321452702702702,11.0,3.9466250000000005,3.912418918918919,2.808114864864865,5.427471283783784,34.988546018056866,5.0,10.245278264384853,10.24390782913354,7.124472443066972,14.673847190405604,0.79,32.0
AZ,37239,HAGGAI HEALTHCARE CORP,"4531 NORTH 16TH STREET, SUITE 102",PHOENIX,85016,Yes,Yes,Yes,Yes,Yes,No,1.5,93.0,79.5,58.6,58.3,64.7,57.1,41.8,13.867232669099073,11.63344092057255,11.63344092057255,1.8,88.5,0.0,100.0,19.0,26.0,73.08,76.5,60.08,88.1,14.321452702702702,11.0,3.9466250000000005,3.912418918918919,2.808114864864865,5.427471283783784,34.988546018056866,13.0,10.245278264384853,10.24390782913354,7.124472443066972,14.673847190405604,0.98,33.0
AZ,37242,"MAXIM HEALTHCARE SERVICES, INC. - WEST PHOENIX","3300 NORTH CENTRAL AVENUE, SUITE 2500",PHOENIX,85012,Yes,No,No,No,No,Yes,3.2422312786551197,67.9,71.06459926017263,78.76185241344453,79.96310174012447,81.67081019687026,79.42103969998708,75.8796644896914,13.867232669099073,11.63344092057255,11.63344092057255,0.3854331202206343,70.0,0.0,96.7,470.7755026520291,1.0,71.59109411619588,76.5523794251881,69.80250894288885,82.4674762550882,14.321452702702702,249.1084323712507,3.9466250000000005,3.912418918918919,2.808114864864865,5.427471283783784,34.988546018056866,1.0,10.245278264384853,10.24390782913354,7.124472443066972,14.673847190405604,0.9690223239839725,870.149787938347
AZ,37243,MGA HOMECARE,"7025 NORTH SCOTTSDALE ROAD, SUITE 200",SCOTTSDALE,85253,Yes,Yes,Yes,Yes,No,Yes,3.2422312786551197,75.3,34.9,78.76185241344453,79.96310174012447,81.67081019687026,79.42103969998708,75.8796644896914,13.867232669099073,11.63344092057255,11.63344092057255,0.0,88.9,0.0,100.0,470.7755026520291,515.5487200660612,71.59109411619588,76.5523794251881,69.80250894288885,82.4674762550882,14.321452702702702,249.1084323712507,3.9466250000000005,3.912418918918919,2.808114864864865,5.427471283783784,34.988546018056866,279.508198478191,10.245278264384853,10.24390782913354,7.124472443066972,14.673847190405604,0.9690223239839725,870.149787938347
AZ,37245,"VALLEY HOME CARE, LLC","23460 NORTH 19TH AVENUE, SUITE 150",PHOENIX,85027,Yes,Yes,Yes,Yes,Yes,Yes,3.0,98.7,65.7,75.8,83.5,79.4,75.9,70.4,10.4,15.4,15.4,0.7,99.6,0.4,97.5,554.0,703.0,78.81,82.39,78.98,85.25,16.0,388.0,4.12,4.14,2.96,5.62,24.0,358.0,6.7,7.99,5.68,10.91,1.02,896.0
AZ,37246,"INTEGRITY HOME HEALTH CARE SERVICES, LLC","4150 WEST PEORIA AVENUE, SUITE 112",PHOENIX,85029,Yes,Yes,Yes,Yes,Yes,Yes,3.0,98.3,67.6,76.6,78.1,82.0,85.4,67.4,13.3,12.1,12.1,0.3,97.1,0.2,90.0,485.0,627.0,77.35,81.91,78.57,84.68,7.0,210.0,3.33,3.89,2.68,5.48,36.0,352.0,10.23,9.92,7.53,12.83,1.04,1053.0
AZ,37247,GOOD SAMARITAN SOCIETY - LEGACY HOME CARE,1953 COMMERCE CIRCLE,PRESCOTT,86301,Yes,Yes,Yes,Yes,Yes,Yes,3.0,100.0,73.5,78.7,78.3,79.3,80.6,78.2,16.9,15.5,15.5,0.8,98.4,1.1,98.9,366.0,438.0,83.56,84.4,81.18,87.88,5.0,227.0,2.2,3.75,2.65,5.35,8.0,226.0,3.54,6.72,4.34,10.68,0.94,661.0
AZ,37248,AMEDISYS HOME HEALTH CARE,"1760 EAST RIVER ROAD, SUITE 181",TUCSON,85718,Yes,Yes,Yes,Yes,Yes,Yes,4.5,99.7,81.3,89.2,92.7,93.1,94.7,90.5,13.5,12.1,12.1,0.0,97.7,1.3,97.7,968.0,1258.0,76.95,83.35,80.81,85.94,19.0,727.0,2.61,3.41,2.57,4.58,82.0,655.0,12.52,11.8,9.73,14.03,1.02,2170.0
AZ,37249,QUALITY HOME HEALTH CARE,1112 EAST WASHINGTON STREET,PHOENIX,85034,Yes,Yes,Yes,Yes,Yes,Yes,3.5,99.0,87.6,83.8,95.2,94.0,77.5,86.1,18.5,13.7,13.7,0.7,98.1,0.9,100.0,148.0,179.0,82.68,87.16,81.02,91.72,2.0,30.0,6.67,4.06,2.78,6.01,17.0,97.0,17.53,14.01,9.67,19.66,0.96,340.0
AZ,37250,"MERIDIAN HEALTHCARE PROVIDERS, INC.","10000 NORTH 31ST AVENUE, SUITE D401",PHOENIX,85051,Yes,Yes,Yes,Yes,Yes,Yes,4.5,99.8,91.6,87.7,91.1,96.8,90.8,98.4,15.5,12.3,12.3,1.6,100.0,1.3,78.3,314.0,456.0,68.86,73.42,69.02,77.65,5.0,112.0,4.46,4.05,2.84,5.75,41.0,275.0,14.91,14.85,11.66,19.05,0.97,1114.0
AZ,37251,"ASPIRE HOME HEALTHCARE OF ARIZONA, INC.","8040 EAST MORGAN TRAIL, SUITE 4",SCOTTSDALE,85258,Yes,Yes,Yes,Yes,Yes,Yes,2.5,81.4,71.9,74.7,80.4,79.3,76.4,82.2,21.6,7.3,7.3,1.2,76.7,0.0,100.0,65.0,84.0,77.38,80.06,69.36,87.45,1.0,40.0,2.5,3.74,2.72,5.13,3.0,44.0,6.82,9.76,5.66,16.41,1.12,156.0
AZ,37252,ANGELS CARE HOME HEALTH,653 EAST COTTONWOOD LANE,CASA GRANDE,85122,Yes,Yes,Yes,Yes,Yes,Yes,2.5,93.2,53.2,81.7,79.9,87.0,81.2,74.7,15.6,11.2,11.2,1.4,75.9,0.8,99.2,460.0,618.0,74.43,80.49,76.93,84.0,9.0,230.0,3.91,3.91,2.83,5.56,52.0,323.0,16.1,13.87,10.68,17.06,1.16,1395.0
AZ,37253,EMBLEM HOME HEALTH,"1400 E. SOUTHERN AVENUE, SUITE 1010",TEMPE,85282,Yes,Yes,Yes,Yes,Yes,Yes,4.5,100.0,80.6,93.3,90.2,92.5,89.7,95.5,12.7,12.6,12.6,0.4,98.9,1.1,99.2,473.0,639.0,74.02,85.71,81.73,88.89,15.0,336.0,4.46,4.1,3.01,5.62,31.0,232.0,13.36,10.41,8.1,13.41,1.07,927.0
AZ,37254,HAVEN HOME HEALTH CARE,"1280 SOUTH 20TH AVENUE, SUITE A",SAFFORD,85546,Yes,Yes,Yes,Yes,Yes,Yes,3.5,95.5,68.1,90.3,91.0,87.9,84.4,84.6,14.0,17.9,17.9,0.4,93.4,0.3,99.2,392.0,533.0,73.55,79.89,75.93,83.79,2.0,202.0,0.99,3.28,2.23,4.48,28.0,325.0,8.62,8.48,6.28,11.13,0.94,1062.0
AZ,37257,CELEBRITY HOME HEALTH & HOSPICE,"2510 SOUTH RURAL ROAD, SUITE 102",TEMPE,85282,Yes,Yes,Yes,Yes,Yes,Yes,3.0,100.0,74.5,76.8,74.4,81.7,73.6,81.1,13.867232669099073,11.63344092057255,11.63344092057255,0.0,94.0,1.5,100.0,470.7755026520291,8.0,71.59109411619588,76.5523794251881,69.80250894288885,82.4674762550882,14.321452702702702,1.0,3.9466250000000005,3.912418918918919,2.808114864864865,5.427471283783784,34.988546018056866,3.0,10.245278264384853,10.24390782913354,7.124472443066972,14.673847190405604,0.98,33.0
AZ,37258,AT HOME HEALTHCARE,"8222 SOUTH 48TH STREET, SUITE 100",PHOENIX,85044,Yes,Yes,Yes,Yes,Yes,Yes,4.5,98.5,83.8,90.9,93.1,99.4,95.4,100.0,16.1,6.9,6.9,0.1,90.8,0.5,99.7,257.0,337.0,76.26,83.17,77.61,87.32,3.0,73.0,4.11,3.87,2.58,5.75,12.0,175.0,6.86,8.14,5.26,12.28,1.01,485.0
AZ,37260,AHC HOME HEALTH OF ARIZONA LLC,"2045 SOUTH VINEYARD, SUITE 127",MESA,85210,Yes,Yes,Yes,Yes,Yes,Yes,3.0,99.1,78.5,71.9,75.7,74.4,71.4,74.2,10.8,11.7,11.7,0.2,99.5,1.3,99.9,1138.0,1572.0,72.39,83.07,80.51,85.71,28.0,771.0,3.63,3.88,2.96,5.02,44.0,755.0,5.83,5.32,4.24,6.85,1.03,1995.0
AZ,37261,CARE PARTNERS HEALTH SERVICES INC,"14122 WEST MCDOWELL ROAD, SUITE 203",GOODYEAR,85395,Yes,Yes,Yes,Yes,Yes,Yes,1.5,82.3,72.1,50.8,59.8,53.6,91.7,44.3,16.9,11.8,11.8,0.0,94.9,1.4,96.2,149.0,193.0,77.2,80.03,73.98,85.36,4.0,59.0,6.78,4.14,2.99,6.2,5.0,62.0,8.06,10.41,6.37,17.94,0.92,318.0
AZ,37262,ASSISTEO HOME HEALTH,"2929 NORTH 44TH STREET, SUITE 130",PHOENIX,85018,Yes,Yes,Yes,Yes,Yes,Yes,3.0,98.4,50.0,76.4,82.1,82.7,88.0,72.9,14.7,12.1,12.1,0.6,99.2,0.6,100.0,1045.0,1180.0,88.56,90.34,88.38,92.08,20.0,597.0,3.35,4.25,3.18,5.96,22.0,533.0,4.13,6.09,4.5,8.6,0.91,1283.0
AZ,37263,"OASIS HOME HEALTH CARE, LLC","115 EAST 1ST STREET, SUITE B",CASA GRANDE,85122,Yes,Yes,Yes,No,No,No,2.0,99.6,47.0,51.7,51.1,57.4,67.5,64.9,13.867232669099073,11.63344092057255,11.63344092057255,0.0,59.6,0.8,100.0,470.7755026520291,17.0,71.59109411619588,76.5523794251881,69.80250894288885,82.4674762550882,14.321452702702702,6.0,3.9466250000000005,3.912418918918919,2.808114864864865,5.427471283783784,34.988546018056866,10.0,10.245278264384853,10.24390782913354,7.124472443066972,14.673847190405604,1.01,22.0
AZ,37264,"HUALAPAI HOME HEALTH CARE, INC","2505 HUALAPAI MOUNTAIN ROAD, SUITE  E",KINGMAN,86401,Yes,Yes,Yes,Yes,Yes,Yes,3.0,97.3,50.8,73.7,69.4,83.0,81.9,73.3,6.7,20.1,20.1,1.4,99.1,0.0,100.0,122.0,145.0,84.14,88.41,81.98,93.61,1.0,88.0,1.14,3.62,2.53,5.13,8.0,83.0,9.64,9.76,6.12,15.39,0.88,216.0
AZ,37265,BEATITUDES HOME HEALTH,"1712 WEST GLENDALE AVENUE, SUITE HH",PHOENIX,85021,Yes,Yes,Yes,Yes,Yes,Yes,3.0,91.8,89.6,83.7,98.3,88.6,62.3,76.4,20.1,6.4,6.4,0.0,94.0,0.0,100.0,178.0,224.0,79.46,81.73,76.08,86.28,1.0,65.0,1.54,3.7,2.58,5.55,9.0,108.0,8.33,10.26,6.49,15.95,1.14,266.0
AZ,37269,"ACACIA HOME HEALTH, INC.",103 EAST 24TH STREET,YUMA,85364,Yes,Yes,Yes,Yes,Yes,Yes,2.5,99.6,88.3,67.1,53.3,76.3,89.4,56.6,13.5,16.9,16.9,1.6,96.9,0.5,100.0,92.0,126.0,73.02,76.97,67.98,83.7,0.0,54.0,0.0,3.62,2.54,5.31,12.0,74.0,16.22,13.82,9.08,20.97,1.11,260.0
AZ,37271,ALECA HOME HEALTH,"8502 EAST PRINCESS DRIVE, SUITE 200",SCOTTSDALE,85255,Yes,Yes,Yes,Yes,Yes,Yes,3.0,99.7,73.5,75.8,79.5,80.5,89.1,72.2,14.1,12.0,12.0,0.6,98.7,1.0,99.9,2241.0,2800.0,80.04,88.65,86.93,90.18,69.0,1593.0,4.33,4.38,3.64,5.45,141.0,1348.0,10.46,9.74,8.36,11.23,1.06,3722.0
AZ,37273,GRACE HOME HEALTH CARE,"1930 SOUTH ALMA SCHOOL ROAD, SUITE B-201",MESA,85210,Yes,Yes,Yes,Yes,Yes,Yes,4.5,100.0,71.6,87.5,87.6,91.5,91.8,94.4,11.7,11.6,11.6,0.4,99.8,0.4,98.5,529.0,702.0,75.36,82.28,78.74,85.32,8.0,267.0,3.0,3.65,2.65,5.18,41.0,374.0,10.96,10.87,8.24,14.2,1.1,1055.0
AZ,37274,"PRESTIGE HOME HEALTH CARE, LLC","3120 NORTH 19TH AVENUE, SUITE 170",PHOENIX,85015,Yes,Yes,Yes,Yes,Yes,Yes,3.2422312786551197,94.09778357235986,71.06459926017263,78.76185241344453,79.96310174012447,81.67081019687026,79.42103969998708,75.8796644896914,13.867232669099073,11.63344092057255,11.63344092057255,0.3854331202206343,92.03302143787754,1.0009491042828331,97.7465119033519,470.7755026520291,515.5487200660612,71.59109411619588,76.5523794251881,69.80250894288885,82.4674762550882,14.321452702702702,249.1084323712507,3.9466250000000005,3.912418918918919,2.808114864864865,5.427471283783784,34.988546018056866,279.508198478191,10.245278264384853,10.24390782913354,7.124472443066972,14.673847190405604,0.9690223239839725,870.149787938347
AZ,37280,ENHABIT HOME HEALTH,"3860 WEST 24TH STREET, SUITE 103",YUMA,85364,Yes,Yes,Yes,Yes,No,Yes,3.5,81.3,60.9,86.1,85.4,88.4,90.7,85.3,11.6,13.9,13.9,0.0,98.3,1.3,99.6,902.0,1091.0,82.68,85.64,83.18,87.84,16.0,560.0,2.86,3.78,2.79,5.18,50.0,508.0,9.84,11.08,8.75,13.65,1.04,1623.0
AZ,37281,DIGNITY HEALTH AT HOME,"1351 NORTH ALMA SCHOOL ROAD, SUITE 270",CHANDLER,85224,Yes,Yes,Yes,Yes,Yes,Yes,4.0,99.7,75.3,86.4,85.4,91.6,89.0,86.8,13.2,11.4,11.4,0.0,99.6,0.7,99.8,856.0,1112.0,76.98,82.84,80.09,85.43,19.0,772.0,2.46,3.27,2.51,4.27,64.0,641.0,9.98,9.21,7.22,11.26,1.03,1624.0
AZ,37282,BANNER HOME CARE,"575 EAST RIVER ROAD, SUITE 102",TUCSON,85704,Yes,Yes,Yes,Yes,Yes,Yes,3.5,100.0,53.7,81.4,82.1,84.6,84.4,79.0,3.4,22.6,22.6,0.0,97.3,0.7,99.3,132.0,157.0,84.08,93.7,86.49,99.71,8.0,119.0,6.72,4.19,2.93,5.74,9.0,74.0,12.16,9.37,6.16,14.16,0.84,213.0
AZ,37285,"ALPHA HEALTHCARE, LLC","16042 NORTH 32ND STREET, SUITE B2",PHOENIX,85032,Yes,Yes,Yes,Yes,Yes,Yes,3.2422312786551197,94.09778357235986,71.06459926017263,78.76185241344453,79.96310174012447,81.67081019687026,79.42103969998708,75.8796644896914,13.867232669099073,11.63344092057255,11.63344092057255,0.3854331202206343,92.03302143787754,1.0009491042828331,97.7465119033519,470.7755026520291,1.0,71.59109411619588,76.5523794251881,69.80250894288885,82.4674762550882,14.321452702702702,249.1084323712507,3.9466250000000005,3.912418918918919,2.808114864864865,5.427471283783784,34.988546018056866,1.0,10.245278264384853,10.24390782913354,7.124472443066972,14.673847190405604,0.9690223239839725,2.0
AZ,37286,THRIVE SKILLED PEDIATRIC CARE,"8687 EAST VIA DE VENTURA, SUITE 110",SCOTTSDALE,85258,Yes,Yes,No,No,No,No,3.2422312786551197,94.09778357235986,71.06459926017263,78.76185241344453,79.96310174012447,81.67081019687026,79.42103969998708,75.8796644896914,13.867232669099073,11.63344092057255,11.63344092057255,0.3854331202206343,92.03302143787754,1.0009491042828331,97.7465119033519,470.7755026520291,515.5487200660612,71.59109411619588,76.5523794251881,69.80250894288885,82.4674762550882,14.321452702702702,249.1084323712507,3.9466250000000005,3.912418918918919,2.808114864864865,5.427471283783784,34.988546018056866,279.508198478191,10.245278264384853,10.24390782913354,7.124472443066972,14.673847190405604,0.9690223239839725,870.149787938347
AZ,37288,RELIABLE NURSES LLC,151 E 6TH ST,TUCSON,85705,Yes,Yes,No,No,Yes,Yes,3.2422312786551197,94.09778357235986,71.06459926017263,78.76185241344453,79.96310174012447,81.67081019687026,79.42103969998708,75.8796644896914,13.867232669099073,11.63344092057255,11.63344092057255,0.3854331202206343,92.03302143787754,1.0009491042828331,97.7465119033519,470.7755026520291,515.5487200660612,71.59109411619588,76.5523794251881,69.80250894288885,82.4674762550882,14.321452702702702,249.1084323712507,3.9466250000000005,3.912418918918919,2.808114864864865,5.427471283783784,34.988546018056866,279.508198478191,10.245278264384853,10.24390782913354,7.124472443066972,14.673847190405604,0.9690223239839725,870.149787938347
AZ,37290,ZION'S WAY HOME HEALTH,39 6TH AVENUE,PAGE,86040,Yes,Yes,Yes,Yes,Yes,Yes,4.5,99.6,75.4,90.4,94.9,92.6,90.2,86.0,15.5,9.9,9.9,0.0,98.7,0.7,99.1,285.0,346.0,82.37,87.24,82.82,90.71,9.0,156.0,5.77,4.28,2.96,5.93,11.0,180.0,6.11,7.53,4.96,11.02,1.12,501.0
AZ,37294,EDEN HOME HEALTH,"1491 WEST THATCHER BOULEVARD, SUITE 104",SAFFORD,85546,Yes,Yes,Yes,Yes,Yes,Yes,3.5,100.0,53.7,79.1,75.2,85.2,79.5,74.3,13.2,22.5,22.5,0.6,98.4,1.1,100.0,85.0,109.0,77.98,82.17,73.69,89.02,1.0,34.0,2.94,3.87,2.71,5.84,7.0,59.0,11.86,11.08,6.5,17.71,1.05,200.0
